{
  "type": "FeatureCollection",
  "_meta": {
    "description": "Major EMEA hyperscale + large colo DC facilities with publicly cited IT MW capacity. Sources: operator press releases, hyperscaler region pages (Microsoft Azure, AWS, Google, Meta), Equinix/Digital Realty/Interxion datasheets, JLL EMEA Data Centres reports, Cushman & Wakefield Global DC Market 2024.",
    "schema": {
      "mw": "Operational IT MW (best public estimate; treat as approximate).",
      "status": "operational | under_construction | planned",
      "operator_type": "hyperscale | colo | enterprise"
    }
  },
  "features": [
    { "type":"Feature", "geometry":{"type":"Point","coordinates":[-0.5950, 51.5105]},
      "properties":{"name":"Equinix LD5/LD6 (Slough)","operator":"Equinix","operator_type":"colo","city":"Slough","country":"GB","mw":75,"status":"operational","url":"https://www.equinix.com/data-centers/europe-colocation/united-kingdom-colocation/london-data-centers"} },
    { "type":"Feature", "geometry":{"type":"Point","coordinates":[-0.6300, 51.5050]},
      "properties":{"name":"Iron Mountain LON-3","operator":"Iron Mountain","operator_type":"colo","city":"Slough","country":"GB","mw":27,"status":"operational","url":"https://www.ironmountain.com/data-centers"} },
    { "type":"Feature", "geometry":{"type":"Point","coordinates":[-0.5300, 51.4500]},
      "properties":{"name":"Microsoft UK South (Heathrow)","operator":"Microsoft Azure","operator_type":"hyperscale","city":"London","country":"GB","mw":100,"status":"operational","url":"https://datacenters.microsoft.com/region/europe/"} },
    { "type":"Feature", "geometry":{"type":"Point","coordinates":[-0.0600, 51.5200]},
      "properties":{"name":"Telehouse North/West/East","operator":"Telehouse","operator_type":"colo","city":"London","country":"GB","mw":50,"status":"operational","url":"https://www.telehouse.net/"} },
    { "type":"Feature", "geometry":{"type":"Point","coordinates":[-0.0200, 51.5500]},
      "properties":{"name":"Digital Realty / Interxion LON1-LON4","operator":"Digital Realty","operator_type":"colo","city":"London","country":"GB","mw":80,"status":"operational","url":"https://www.digitalrealty.co.uk/"} },
    { "type":"Feature", "geometry":{"type":"Point","coordinates":[-0.7800, 51.3500]},
      "properties":{"name":"VIRTUS LONDON5/LONDON6","operator":"VIRTUS","operator_type":"colo","city":"Slough","country":"GB","mw":80,"status":"operational","url":"https://www.virtusdatacentres.com/"} },

    { "type":"Feature", "geometry":{"type":"Point","coordinates":[-6.2603, 53.3498]},
      "properties":{"name":"Meta Clonee","operator":"Meta","operator_type":"hyperscale","city":"Dublin","country":"IE","mw":230,"status":"operational","url":"https://datacenters.atmeta.com/clonee/"} },
    { "type":"Feature", "geometry":{"type":"Point","coordinates":[-6.3700, 53.3500]},
      "properties":{"name":"Microsoft North Europe","operator":"Microsoft Azure","operator_type":"hyperscale","city":"Dublin","country":"IE","mw":170,"status":"operational","url":"https://datacenters.microsoft.com/region/europe/"} },
    { "type":"Feature", "geometry":{"type":"Point","coordinates":[-6.4000, 53.4200]},
      "properties":{"name":"AWS Ireland (multi-AZ Dublin)","operator":"AWS","operator_type":"hyperscale","city":"Dublin","country":"IE","mw":250,"status":"operational","url":"https://aws.amazon.com/about-aws/global-infrastructure/regions_az/"} },
    { "type":"Feature", "geometry":{"type":"Point","coordinates":[-6.4500, 53.3700]},
      "properties":{"name":"Equinix DB1-DB5","operator":"Equinix","operator_type":"colo","city":"Dublin","country":"IE","mw":75,"status":"operational","url":"https://www.equinix.com/data-centers/europe-colocation/ireland-colocation/dublin-data-centers"} },

    { "type":"Feature", "geometry":{"type":"Point","coordinates":[8.6821, 50.1109]},
      "properties":{"name":"Equinix FR2/FR4/FR5/FR6/FR7","operator":"Equinix","operator_type":"colo","city":"Frankfurt","country":"DE","mw":130,"status":"operational","url":"https://www.equinix.com/data-centers/europe-colocation/germany-colocation/frankfurt-data-centers"} },
    { "type":"Feature", "geometry":{"type":"Point","coordinates":[8.7100, 50.1300]},
      "properties":{"name":"Digital Realty / Interxion FRA1-FRA17","operator":"Digital Realty","operator_type":"colo","city":"Frankfurt","country":"DE","mw":180,"status":"operational","url":"https://www.digitalrealty.com/data-centers/emea/frankfurt"} },
    { "type":"Feature", "geometry":{"type":"Point","coordinates":[8.6500, 50.0900]},
      "properties":{"name":"NTT Frankfurt 1-3","operator":"NTT","operator_type":"colo","city":"Frankfurt","country":"DE","mw":90,"status":"operational","url":"https://services.global.ntt/en-us/services-and-products/data-centers/frankfurt"} },
    { "type":"Feature", "geometry":{"type":"Point","coordinates":[8.6700, 50.1000]},
      "properties":{"name":"Vantage FRA1/FRA2","operator":"Vantage","operator_type":"colo","city":"Frankfurt","country":"DE","mw":80,"status":"operational","url":"https://vantage-dc.com/data_center/frankfurt/"} },
    { "type":"Feature", "geometry":{"type":"Point","coordinates":[8.6900, 50.1200]},
      "properties":{"name":"Microsoft Germany West Central","operator":"Microsoft Azure","operator_type":"hyperscale","city":"Frankfurt","country":"DE","mw":120,"status":"operational","url":"https://datacenters.microsoft.com/region/europe/"} },

    { "type":"Feature", "geometry":{"type":"Point","coordinates":[4.9041, 52.3676]},
      "properties":{"name":"Equinix AM3/AM4/AM7","operator":"Equinix","operator_type":"colo","city":"Amsterdam","country":"NL","mw":75,"status":"operational","url":"https://www.equinix.com/data-centers/europe-colocation/netherlands-colocation/amsterdam-data-centers"} },
    { "type":"Feature", "geometry":{"type":"Point","coordinates":[4.9300, 52.3800]},
      "properties":{"name":"Digital Realty / Interxion AMS1-AMS17","operator":"Digital Realty","operator_type":"colo","city":"Amsterdam","country":"NL","mw":150,"status":"operational","url":"https://www.digitalrealty.com/data-centers/emea/amsterdam"} },
    { "type":"Feature", "geometry":{"type":"Point","coordinates":[5.0200, 52.7800]},
      "properties":{"name":"Microsoft Middenmeer","operator":"Microsoft Azure","operator_type":"hyperscale","city":"Middenmeer","country":"NL","mw":230,"status":"operational","url":"https://datacenters.microsoft.com/region/europe/"} },
    { "type":"Feature", "geometry":{"type":"Point","coordinates":[5.1500, 52.6700]},
      "properties":{"name":"Google Eemshaven","operator":"Google","operator_type":"hyperscale","city":"Eemshaven","country":"NL","mw":230,"status":"operational","url":"https://www.google.com/about/datacenters/locations/eemshaven/"} },

    { "type":"Feature", "geometry":{"type":"Point","coordinates":[2.3522, 48.8566]},
      "properties":{"name":"Equinix PA8/PA9","operator":"Equinix","operator_type":"colo","city":"Paris","country":"FR","mw":50,"status":"operational","url":"https://www.equinix.com/data-centers/europe-colocation/france-colocation/paris-data-centers"} },
    { "type":"Feature", "geometry":{"type":"Point","coordinates":[2.3500, 48.9000]},
      "properties":{"name":"Digital Realty / Interxion PAR1-PAR8","operator":"Digital Realty","operator_type":"colo","city":"Paris","country":"FR","mw":110,"status":"operational","url":"https://www.digitalrealty.com/data-centers/emea/paris"} },
    { "type":"Feature", "geometry":{"type":"Point","coordinates":[2.4500, 48.8200]},
      "properties":{"name":"Data4 Paris-Saclay","operator":"Data4","operator_type":"colo","city":"Saclay","country":"FR","mw":80,"status":"operational","url":"https://www.data4group.com/en/data-center-france/"} },
    { "type":"Feature", "geometry":{"type":"Point","coordinates":[2.3800, 48.9100]},
      "properties":{"name":"AWS Paris (EU-West-3)","operator":"AWS","operator_type":"hyperscale","city":"Paris","country":"FR","mw":100,"status":"operational","url":"https://aws.amazon.com/about-aws/global-infrastructure/regions_az/"} },

    { "type":"Feature", "geometry":{"type":"Point","coordinates":[4.3517, 50.8503]},
      "properties":{"name":"Google St-Ghislain","operator":"Google","operator_type":"hyperscale","city":"Saint-Ghislain","country":"BE","mw":200,"status":"operational","url":"https://www.google.com/about/datacenters/locations/st-ghislain/"} },
    { "type":"Feature", "geometry":{"type":"Point","coordinates":[6.1296, 49.6116]},
      "properties":{"name":"LuxConnect DC1-DC3","operator":"LuxConnect","operator_type":"colo","city":"Bissen","country":"LU","mw":40,"status":"operational","url":"https://www.luxconnect.lu/"} },

    { "type":"Feature", "geometry":{"type":"Point","coordinates":[-3.7038, 40.4168]},
      "properties":{"name":"Equinix MD2/MD3","operator":"Equinix","operator_type":"colo","city":"Madrid","country":"ES","mw":35,"status":"operational","url":"https://www.equinix.com/data-centers/europe-colocation/spain-colocation/madrid-data-centers"} },
    { "type":"Feature", "geometry":{"type":"Point","coordinates":[-3.6800, 40.4500]},
      "properties":{"name":"Stack EMEA Madrid","operator":"Stack Infrastructure","operator_type":"hyperscale","city":"Madrid","country":"ES","mw":100,"status":"under_construction","url":"https://www.stackinfra.com/"} },
    { "type":"Feature", "geometry":{"type":"Point","coordinates":[-3.7100, 40.5000]},
      "properties":{"name":"AWS Spain (EU-South-2)","operator":"AWS","operator_type":"hyperscale","city":"Madrid","country":"ES","mw":120,"status":"under_construction","url":"https://aws.amazon.com/about-aws/global-infrastructure/regions_az/"} },
    { "type":"Feature", "geometry":{"type":"Point","coordinates":[-3.6900, 40.4900]},
      "properties":{"name":"Microsoft Spain Central","operator":"Microsoft Azure","operator_type":"hyperscale","city":"Madrid","country":"ES","mw":120,"status":"operational","url":"https://datacenters.microsoft.com/region/europe/"} },

    { "type":"Feature", "geometry":{"type":"Point","coordinates":[9.1900, 45.4642]},
      "properties":{"name":"Aruba Global Cloud Data Center Bergamo","operator":"Aruba","operator_type":"colo","city":"Bergamo","country":"IT","mw":90,"status":"operational","url":"https://www.arubadatacenter.com/"} },
    { "type":"Feature", "geometry":{"type":"Point","coordinates":[9.2000, 45.4800]},
      "properties":{"name":"Equinix MI3","operator":"Equinix","operator_type":"colo","city":"Milan","country":"IT","mw":30,"status":"operational","url":"https://www.equinix.com/data-centers/europe-colocation/italy-colocation/milan-data-centers"} },
    { "type":"Feature", "geometry":{"type":"Point","coordinates":[9.2200, 45.4500]},
      "properties":{"name":"AWS Italy (EU-South-1)","operator":"AWS","operator_type":"hyperscale","city":"Milan","country":"IT","mw":80,"status":"operational","url":"https://aws.amazon.com/about-aws/global-infrastructure/regions_az/"} },

    { "type":"Feature", "geometry":{"type":"Point","coordinates":[-9.1393, 38.7223]},
      "properties":{"name":"Start Campus SIN01-SIN04 (Sines)","operator":"Start Campus","operator_type":"hyperscale","city":"Sines","country":"PT","mw":495,"status":"under_construction","note":"Phase 1 (SIN01) 22 MW live; total campus 495 MW","url":"https://startcampus.com/"} },

    { "type":"Feature", "geometry":{"type":"Point","coordinates":[18.0686, 59.3293]},
      "properties":{"name":"DigiPlex Stockholm","operator":"DigiPlex","operator_type":"colo","city":"Stockholm","country":"SE","mw":40,"status":"operational","url":"https://www.digiplex.com/"} },
    { "type":"Feature", "geometry":{"type":"Point","coordinates":[20.2630, 67.8557]},
      "properties":{"name":"Facebook Luleå","operator":"Meta","operator_type":"hyperscale","city":"Luleå","country":"SE","mw":120,"status":"operational","url":"https://datacenters.atmeta.com/lulea/"} },
    { "type":"Feature", "geometry":{"type":"Point","coordinates":[10.7522, 59.9139]},
      "properties":{"name":"Bulk N01 (Oslo)","operator":"Bulk","operator_type":"colo","city":"Oslo","country":"NO","mw":35,"status":"operational","url":"https://www.bulk.com/"} },
    { "type":"Feature", "geometry":{"type":"Point","coordinates":[7.0000, 58.5000]},
      "properties":{"name":"Green Mountain DC1 (Stavanger)","operator":"Green Mountain","operator_type":"colo","city":"Stavanger","country":"NO","mw":35,"status":"operational","url":"https://greenmountain.no/"} },
    { "type":"Feature", "geometry":{"type":"Point","coordinates":[12.5683, 55.6761]},
      "properties":{"name":"Microsoft Denmark East","operator":"Microsoft Azure","operator_type":"hyperscale","city":"Copenhagen","country":"DK","mw":300,"status":"under_construction","url":"https://datacenters.microsoft.com/region/europe/"} },
    { "type":"Feature", "geometry":{"type":"Point","coordinates":[10.0000, 55.7000]},
      "properties":{"name":"Meta Odense","operator":"Meta","operator_type":"hyperscale","city":"Odense","country":"DK","mw":175,"status":"operational","url":"https://datacenters.atmeta.com/odense/"} },
    { "type":"Feature", "geometry":{"type":"Point","coordinates":[27.1932, 60.6936]},
      "properties":{"name":"Google Hamina","operator":"Google","operator_type":"hyperscale","city":"Hamina","country":"FI","mw":260,"status":"operational","url":"https://www.google.com/about/datacenters/locations/hamina/"} },

    { "type":"Feature", "geometry":{"type":"Point","coordinates":[55.2708, 25.2048]},
      "properties":{"name":"Equinix DX1/DX2 (Dubai)","operator":"Equinix","operator_type":"colo","city":"Dubai","country":"AE","mw":35,"status":"operational","url":"https://www.equinix.com/data-centers/middle-east-data-centers/uae-data-centers"} },
    { "type":"Feature", "geometry":{"type":"Point","coordinates":[55.3500, 25.0500]},
      "properties":{"name":"khazna AUH/DXB cluster","operator":"khazna","operator_type":"hyperscale","city":"Abu Dhabi","country":"AE","mw":180,"status":"operational","url":"https://www.khazna.ae/"} },
    { "type":"Feature", "geometry":{"type":"Point","coordinates":[46.6753, 24.7136]},
      "properties":{"name":"STC SDC2 (Riyadh)","operator":"STC","operator_type":"colo","city":"Riyadh","country":"SA","mw":60,"status":"operational","url":"https://www.stc.com.sa/"} },
    { "type":"Feature", "geometry":{"type":"Point","coordinates":[46.7000, 24.7500]},
      "properties":{"name":"Saudi Cloud STC Cloud","operator":"STC Cloud","operator_type":"hyperscale","city":"Riyadh","country":"SA","mw":80,"status":"operational","url":"https://www.stc.com.sa/"} },
    { "type":"Feature", "geometry":{"type":"Point","coordinates":[34.7818, 32.0853]},
      "properties":{"name":"AWS Israel (IL-Central-1)","operator":"AWS","operator_type":"hyperscale","city":"Tel Aviv","country":"IL","mw":80,"status":"operational","url":"https://aws.amazon.com/about-aws/global-infrastructure/regions_az/"} },

    { "type":"Feature", "geometry":{"type":"Point","coordinates":[28.0473, -26.2041]},
      "properties":{"name":"Africa Data Centres JB1 (Midrand)","operator":"Africa Data Centres","operator_type":"colo","city":"Johannesburg","country":"ZA","mw":80,"status":"operational","url":"https://www.africadatacentres.com/"} },
    { "type":"Feature", "geometry":{"type":"Point","coordinates":[28.0800, -26.1500]},
      "properties":{"name":"Teraco JB1/JB3/JB4","operator":"Teraco","operator_type":"colo","city":"Johannesburg","country":"ZA","mw":100,"status":"operational","url":"https://www.teraco.co.za/"} },
    { "type":"Feature", "geometry":{"type":"Point","coordinates":[18.4241, -33.9249]},
      "properties":{"name":"Teraco CT1 (Cape Town)","operator":"Teraco","operator_type":"colo","city":"Cape Town","country":"ZA","mw":30,"status":"operational","url":"https://www.teraco.co.za/"} },
    { "type":"Feature", "geometry":{"type":"Point","coordinates":[18.5000, -33.9000]},
      "properties":{"name":"AWS Cape Town (AF-South-1)","operator":"AWS","operator_type":"hyperscale","city":"Cape Town","country":"ZA","mw":50,"status":"operational","url":"https://aws.amazon.com/about-aws/global-infrastructure/regions_az/"} },
    { "type":"Feature", "geometry":{"type":"Point","coordinates":[3.3792, 6.5244]},
      "properties":{"name":"MainOne / Equinix Lagos","operator":"Equinix","operator_type":"colo","city":"Lagos","country":"NG","mw":25,"status":"operational","url":"https://www.equinix.com/data-centers/africa-colocation/nigeria-colocation/lagos-data-centers"} },
    { "type":"Feature", "geometry":{"type":"Point","coordinates":[31.2357, 30.0444]},
      "properties":{"name":"Telecom Egypt Smart Village","operator":"Telecom Egypt","operator_type":"colo","city":"Cairo","country":"EG","mw":20,"status":"operational","url":"https://te.eg/wps/portal/te"} },
    { "type":"Feature", "geometry":{"type":"Point","coordinates":[-7.5898, 33.5731]},
      "properties":{"name":"N+ONE Casablanca","operator":"N+ONE","operator_type":"colo","city":"Casablanca","country":"MA","mw":15,"status":"operational","url":"https://www.nplusone.ma/"} }
  ]
}
