{"type": "FeatureCollection", "features": [{"type": "Feature", "geometry": {"type": "Point", "coordinates": [-0.010775, 51.499819]}, "properties": {"name": "LINX LON1", "city": "London", "country": "GB", "members": 844, "url": "https://www.peeringdb.com/ix/18"}}, {"type": "Feature", "geometry": {"type": "Point", "coordinates": [4.950837, 52.356394]}, "properties": {"name": "AMS-IX", "city": "Amsterdam", "country": "NL", "members": 859, "url": "https://www.peeringdb.com/ix/26"}}, {"type": "Feature", "geometry": {"type": "Point", "coordinates": [8.520255, 47.387749]}, "properties": {"name": "Equinix Zurich", "city": "Zurich", "country": "CH", "members": 42, "url": "https://www.peeringdb.com/ix/29"}}, {"type": "Feature", "geometry": {"type": "Point", "coordinates": [8.735199, 50.11925]}, "properties": {"name": "DE-CIX Frankfurt", "city": "Frankfurt", "country": "DE", "members": 1019, "url": "https://www.peeringdb.com/ix/31"}}, {"type": "Feature", "geometry": {"type": "Point", "coordinates": [6.144251, 46.203607]}, "properties": {"name": "CIXP", "city": "Geneva", "country": "CH", "members": 44, "url": "https://www.peeringdb.com/ix/33"}}, {"type": "Feature", "geometry": {"type": "Point", "coordinates": [2.208747, 48.782499]}, "properties": {"name": "SFINX", "city": "Paris", "country": "FR", "members": 24, "url": "https://www.peeringdb.com/ix/34"}}, {"type": "Feature", "geometry": {"type": "Point", "coordinates": [9.17865, 45.49538]}, "properties": {"name": "MIX-IT", "city": "Milan", "country": "IT", "members": 394, "url": "https://www.peeringdb.com/ix/35"}}, {"type": "Feature", "geometry": {"type": "Point", "coordinates": [-6.41897, 53.296306]}, "properties": {"name": "INEX LAN1", "city": "Dublin", "country": "IE", "members": 107, "url": "https://www.peeringdb.com/ix/48"}}, {"type": "Feature", "geometry": {"type": "Point", "coordinates": [16.357784, 48.214151]}, "properties": {"name": "VIX", "city": "Vienna", "country": "AT", "members": 169, "url": "https://www.peeringdb.com/ix/50"}}, {"type": "Feature", "geometry": {"type": "Point", "coordinates": [-0.010775, 51.499819]}, "properties": {"name": "LONAP", "city": "London", "country": "GB", "members": 304, "url": "https://www.peeringdb.com/ix/53"}}, {"type": "Feature", "geometry": {"type": "Point", "coordinates": [19.055712, 47.51796]}, "properties": {"name": "BiX", "city": "Budapest", "country": "HU", "members": 103, "url": "https://www.peeringdb.com/ix/55"}}, {"type": "Feature", "geometry": {"type": "Point", "coordinates": [4.476941, 50.870502]}, "properties": {"name": "BNIX", "city": "Brussels", "country": "BE", "members": 78, "url": "https://www.peeringdb.com/ix/59"}}, {"type": "Feature", "geometry": {"type": "Point", "coordinates": [8.520255, 47.387749]}, "properties": {"name": "SwissIX", "city": "Zurich", "country": "CH", "members": 236, "url": "https://www.peeringdb.com/ix/60"}}, {"type": "Feature", "geometry": {"type": "Point", "coordinates": [2.137457, 41.351557]}, "properties": {"name": "CATNIX", "city": "Barcelona", "country": "ES", "members": 50, "url": "https://www.peeringdb.com/ix/62"}}, {"type": "Feature", "geometry": {"type": "Point", "coordinates": [-3.660963, 40.466022]}, "properties": {"name": "ESpanix Madrid Lower LAN", "city": "Madrid", "country": "ES", "members": 159, "url": "https://www.peeringdb.com/ix/63"}}, {"type": "Feature", "geometry": {"type": "Point", "coordinates": [4.950837, 52.356394]}, "properties": {"name": "NL-ix", "city": "Amsterdam, Rotterdam, Brussels, Luxembourg, Frankfurt, D\u00fcsseldorf, Berlin, Dublin, London, Copenhagen, Paris, Marseille", "country": "NL", "members": 527, "url": "https://www.peeringdb.com/ix/64"}}, {"type": "Feature", "geometry": {"type": "Point", "coordinates": [2.208747, 48.782499]}, "properties": {"name": "France-IX AURA", "city": "Lyon and Grenoble", "country": "FR", "members": 74, "url": "https://www.peeringdb.com/ix/69"}}, {"type": "Feature", "geometry": {"type": "Point", "coordinates": [17.955657, 59.362574]}, "properties": {"name": "Netnod Stockholm GREEN -- MTU1500", "city": "Stockholm", "country": "SE", "members": 188, "url": "https://www.peeringdb.com/ix/70"}}, {"type": "Feature", "geometry": {"type": "Point", "coordinates": [14.482978, 50.060164]}, "properties": {"name": "NIX.CZ", "city": "Prague", "country": "CZ", "members": 171, "url": "https://www.peeringdb.com/ix/71"}}, {"type": "Feature", "geometry": {"type": "Point", "coordinates": [-9.123454, 38.787919]}, "properties": {"name": "GigaPIX - LAN 1", "city": "Lisbon", "country": "PT", "members": 54, "url": "https://www.peeringdb.com/ix/72"}}, {"type": "Feature", "geometry": {"type": "Point", "coordinates": [11.526173, 48.139859]}, "properties": {"name": "MegaIX Munich", "city": "Munich", "country": "DE", "members": 36, "url": "https://www.peeringdb.com/ix/73"}}, {"type": "Feature", "geometry": {"type": "Point", "coordinates": [10.04365, 53.54799]}, "properties": {"name": "DE-CIX Hamburg", "city": "Hamburg", "country": "DE", "members": 169, "url": "https://www.peeringdb.com/ix/74"}}, {"type": "Feature", "geometry": {"type": "Point", "coordinates": [12.377482, 55.728092]}, "properties": {"name": "DIX", "city": "Copenhagen", "country": "DK", "members": 28, "url": "https://www.peeringdb.com/ix/78"}}, {"type": "Feature", "geometry": {"type": "Point", "coordinates": [10.810183, 59.924726]}, "properties": {"name": "NIX1", "city": "Oslo", "country": "NO", "members": 65, "url": "https://www.peeringdb.com/ix/83"}}, {"type": "Feature", "geometry": {"type": "Point", "coordinates": [17.095572, 48.118746]}, "properties": {"name": "SIX.SK", "city": "Bratislava", "country": "SK", "members": 61, "url": "https://www.peeringdb.com/ix/84"}}, {"type": "Feature", "geometry": {"type": "Point", "coordinates": [4.950837, 52.356394]}, "properties": {"name": "NDIX", "city": "Enschede / M\u00fcnster", "country": "NL", "members": 16, "url": "https://www.peeringdb.com/ix/85"}}, {"type": "Feature", "geometry": {"type": "Point", "coordinates": [13.369905, 52.465779]}, "properties": {"name": "BCIX", "city": "Berlin", "country": "DE", "members": 138, "url": "https://www.peeringdb.com/ix/87"}}, {"type": "Feature", "geometry": {"type": "Point", "coordinates": [8.735199, 50.11925]}, "properties": {"name": "MegaIX Dusseldorf", "city": "Dusseldorf", "country": "DE", "members": 94, "url": "https://www.peeringdb.com/ix/91"}}, {"type": "Feature", "geometry": {"type": "Point", "coordinates": [24.922446, 60.204658]}, "properties": {"name": "FICIX 2 (Helsinki)", "city": "Helsinki", "country": "FI", "members": 60, "url": "https://www.peeringdb.com/ix/98"}}, {"type": "Feature", "geometry": {"type": "Point", "coordinates": [7.660825, 45.090688]}, "properties": {"name": "TOP-IX", "city": "Turin", "country": "IT", "members": 102, "url": "https://www.peeringdb.com/ix/115"}}, {"type": "Feature", "geometry": {"type": "Point", "coordinates": [12.512156, 41.898919]}, "properties": {"name": "Namex Rome", "city": "Rome", "country": "IT", "members": 199, "url": "https://www.peeringdb.com/ix/121"}}, {"type": "Feature", "geometry": {"type": "Point", "coordinates": [8.735199, 50.11925]}, "properties": {"name": "KleyReX", "city": "Frankfurt", "country": "DE", "members": 285, "url": "https://www.peeringdb.com/ix/123"}}, {"type": "Feature", "geometry": {"type": "Point", "coordinates": [17.955657, 59.362574]}, "properties": {"name": "SOLIX MTU1500", "city": "Stockholm", "country": "SE", "members": 51, "url": "https://www.peeringdb.com/ix/128"}}, {"type": "Feature", "geometry": {"type": "Point", "coordinates": [28.197517, -26.137957]}, "properties": {"name": "JINX", "city": "Johannesburg", "country": "ZA", "members": 195, "url": "https://www.peeringdb.com/ix/129"}}, {"type": "Feature", "geometry": {"type": "Point", "coordinates": [8.735199, 50.11925]}, "properties": {"name": "N-IX", "city": "N\u00fcrnberg", "country": "DE", "members": 22, "url": "https://www.peeringdb.com/ix/135"}}, {"type": "Feature", "geometry": {"type": "Point", "coordinates": [12.002845, 57.731137]}, "properties": {"name": "GIX Gothenburg", "city": "Gothenburg", "country": "SE", "members": 0, "url": "https://www.peeringdb.com/ix/146"}}, {"type": "Feature", "geometry": {"type": "Point", "coordinates": [8.735199, 50.11925]}, "properties": {"name": "OpenCarrier OCIX", "city": "Duesseldorf", "country": "DE", "members": 6, "url": "https://www.peeringdb.com/ix/170"}}, {"type": "Feature", "geometry": {"type": "Point", "coordinates": [17.955657, 59.362574]}, "properties": {"name": "STHIX - Stockholm", "city": "Stockholm", "country": "SE", "members": 82, "url": "https://www.peeringdb.com/ix/172"}}, {"type": "Feature", "geometry": {"type": "Point", "coordinates": [24.714942, 59.435184]}, "properties": {"name": "TLLIX", "city": "Tallinn", "country": "EE", "members": 6, "url": "https://www.peeringdb.com/ix/190"}}, {"type": "Feature", "geometry": {"type": "Point", "coordinates": [12.002845, 57.731137]}, "properties": {"name": "Netnod Gothenburg -- MTU1500", "city": "Gothenburg", "country": "SE", "members": 16, "url": "https://www.peeringdb.com/ix/192"}}, {"type": "Feature", "geometry": {"type": "Point", "coordinates": [12.377482, 55.728092]}, "properties": {"name": "Netnod Copenhagen GREEN -- MTU9K", "city": "Malmo / Copenhagen", "country": "DK", "members": 65, "url": "https://www.peeringdb.com/ix/193"}}, {"type": "Feature", "geometry": {"type": "Point", "coordinates": [17.955657, 59.362574]}, "properties": {"name": "Netnod Sundsvall -- MTU1500", "city": "Sundsvall / Gavle", "country": "SE", "members": 18, "url": "https://www.peeringdb.com/ix/194"}}, {"type": "Feature", "geometry": {"type": "Point", "coordinates": [13.369905, 52.465779]}, "properties": {"name": "MegaIX Berlin", "city": "Berlin", "country": "DE", "members": 44, "url": "https://www.peeringdb.com/ix/209"}}, {"type": "Feature", "geometry": {"type": "Point", "coordinates": [9.17098, 48.70899]}, "properties": {"name": "Stuttgart-IX", "city": "Stuttgart", "country": "DE", "members": 36, "url": "https://www.peeringdb.com/ix/212"}}, {"type": "Feature", "geometry": {"type": "Point", "coordinates": [-21.907494, 64.144974]}, "properties": {"name": "RIX", "city": "Reykjavik", "country": "IS", "members": 25, "url": "https://www.peeringdb.com/ix/228"}}, {"type": "Feature", "geometry": {"type": "Point", "coordinates": [16.930076, 52.409911]}, "properties": {"name": "POZIX", "city": "Poznan", "country": "PL", "members": 29, "url": "https://www.peeringdb.com/ix/230"}}, {"type": "Feature", "geometry": {"type": "Point", "coordinates": [12.935775, 55.571236]}, "properties": {"name": "IXOR", "city": "Malm\u00f6", "country": "SE", "members": 0, "url": "https://www.peeringdb.com/ix/231"}}, {"type": "Feature", "geometry": {"type": "Point", "coordinates": [36.896534, -1.34014]}, "properties": {"name": "KIXP - Nairobi", "city": "Nairobi", "country": "KE", "members": 133, "url": "https://www.peeringdb.com/ix/236"}}, {"type": "Feature", "geometry": {"type": "Point", "coordinates": [9.17865, 45.49538]}, "properties": {"name": "MINAP Milan", "city": "Milan", "country": "IT", "members": 109, "url": "https://www.peeringdb.com/ix/240"}}, {"type": "Feature", "geometry": {"type": "Point", "coordinates": [11.526173, 48.139859]}, "properties": {"name": "DE-CIX Munich", "city": "Munich", "country": "DE", "members": 180, "url": "https://www.peeringdb.com/ix/248"}}, {"type": "Feature", "geometry": {"type": "Point", "coordinates": [2.208747, 48.782499]}, "properties": {"name": "Equinix Paris", "city": "Paris", "country": "FR", "members": 242, "url": "https://www.peeringdb.com/ix/255"}}, {"type": "Feature", "geometry": {"type": "Point", "coordinates": [17.955657, 59.362574]}, "properties": {"name": "Netnod Lulea -- MTU9K", "city": "Lulea", "country": "SE", "members": 8, "url": "https://www.peeringdb.com/ix/257"}}, {"type": "Feature", "geometry": {"type": "Point", "coordinates": [17.955657, 59.362574]}, "properties": {"name": "Norrnod", "city": "Umea", "country": "SE", "members": 1, "url": "https://www.peeringdb.com/ix/258"}}, {"type": "Feature", "geometry": {"type": "Point", "coordinates": [21.005015, 52.227718]}, "properties": {"name": "Equinix Warsaw", "city": "Warsaw", "country": "PL", "members": 235, "url": "https://www.peeringdb.com/ix/264"}}, {"type": "Feature", "geometry": {"type": "Point", "coordinates": [26.115913, 44.419772]}, "properties": {"name": "InterLAN-IX", "city": "Bucharest", "country": "RO", "members": 125, "url": "https://www.peeringdb.com/ix/270"}}, {"type": "Feature", "geometry": {"type": "Point", "coordinates": [9.17865, 45.49538]}, "properties": {"name": "TIX", "city": "Florence", "country": "IT", "members": 17, "url": "https://www.peeringdb.com/ix/273"}}, {"type": "Feature", "geometry": {"type": "Point", "coordinates": [31.246959, 30.145975]}, "properties": {"name": "CAIX", "city": "Cairo", "country": "EG", "members": 5, "url": "https://www.peeringdb.com/ix/274"}}, {"type": "Feature", "geometry": {"type": "Point", "coordinates": [10.04365, 53.54799]}, "properties": {"name": "MegaIX Hamburg", "city": "Hamburg", "country": "DE", "members": 54, "url": "https://www.peeringdb.com/ix/291"}}, {"type": "Feature", "geometry": {"type": "Point", "coordinates": [6.163425, 49.637537]}, "properties": {"name": "LU-CIX", "city": "Luxembourg", "country": "LU", "members": 82, "url": "https://www.peeringdb.com/ix/297"}}, {"type": "Feature", "geometry": {"type": "Point", "coordinates": [10.810183, 59.924726]}, "properties": {"name": "NIX2", "city": "Oslo", "country": "NO", "members": 11, "url": "https://www.peeringdb.com/ix/298"}}, {"type": "Feature", "geometry": {"type": "Point", "coordinates": [17.095572, 48.118746]}, "properties": {"name": "NIX.SK", "city": "Bratislava", "country": "SK", "members": 63, "url": "https://www.peeringdb.com/ix/299"}}, {"type": "Feature", "geometry": {"type": "Point", "coordinates": [26.115913, 44.419772]}, "properties": {"name": "RoNIX", "city": "Bucharest", "country": "RO", "members": 38, "url": "https://www.peeringdb.com/ix/301"}}, {"type": "Feature", "geometry": {"type": "Point", "coordinates": [16.031468, 45.785779]}, "properties": {"name": "CIX", "city": "Zagreb", "country": "HR", "members": 40, "url": "https://www.peeringdb.com/ix/303"}}, {"type": "Feature", "geometry": {"type": "Point", "coordinates": [11.92851, 45.38861]}, "properties": {"name": "VSIX", "city": "Padova", "country": "IT", "members": 75, "url": "https://www.peeringdb.com/ix/311"}}, {"type": "Feature", "geometry": {"type": "Point", "coordinates": [4.414322, 51.930359]}, "properties": {"name": "R_iX", "city": "Rotterdam", "country": "NL", "members": 10, "url": "https://www.peeringdb.com/ix/313"}}, {"type": "Feature", "geometry": {"type": "Point", "coordinates": [-6.41897, 53.296306]}, "properties": {"name": "ExWest", "city": "Galway", "country": "IE", "members": 2, "url": "https://www.peeringdb.com/ix/316"}}, {"type": "Feature", "geometry": {"type": "Point", "coordinates": [14.460483, 46.049968]}, "properties": {"name": "SIX SI", "city": "Ljubljana", "country": "SI", "members": 29, "url": "https://www.peeringdb.com/ix/319"}}, {"type": "Feature", "geometry": {"type": "Point", "coordinates": [-0.010775, 51.499819]}, "properties": {"name": "LINX LON2", "city": "London", "country": "GB", "members": 318, "url": "https://www.peeringdb.com/ix/321"}}, {"type": "Feature", "geometry": {"type": "Point", "coordinates": [23.32401, 42.693819]}, "properties": {"name": "B-IX", "city": "Sofia", "country": "BG", "members": 55, "url": "https://www.peeringdb.com/ix/326"}}, {"type": "Feature", "geometry": {"type": "Point", "coordinates": [23.757183, 61.496478]}, "properties": {"name": "TREX Tampere", "city": "Tampere", "country": "FI", "members": 24, "url": "https://www.peeringdb.com/ix/328"}}, {"type": "Feature", "geometry": {"type": "Point", "coordinates": [23.32401, 42.693819]}, "properties": {"name": "BIX.BG", "city": "Sofia", "country": "BG", "members": 126, "url": "https://www.peeringdb.com/ix/331"}}, {"type": "Feature", "geometry": {"type": "Point", "coordinates": [18.420575, -33.918595]}, "properties": {"name": "CINX", "city": "Cape Town", "country": "ZA", "members": 116, "url": "https://www.peeringdb.com/ix/344"}}, {"type": "Feature", "geometry": {"type": "Point", "coordinates": [23.745514, 37.973352]}, "properties": {"name": "GR-IX::Athens", "city": "Athens", "country": "GR", "members": 67, "url": "https://www.peeringdb.com/ix/347"}}, {"type": "Feature", "geometry": {"type": "Point", "coordinates": [4.950837, 52.356394]}, "properties": {"name": "GNM-IX", "city": "Amsterdam", "country": "NL", "members": 422, "url": "https://www.peeringdb.com/ix/358"}}, {"type": "Feature", "geometry": {"type": "Point", "coordinates": [2.208747, 48.782499]}, "properties": {"name": "France-IX Paris", "city": "Paris", "country": "FR", "members": 445, "url": "https://www.peeringdb.com/ix/359"}}, {"type": "Feature", "geometry": {"type": "Point", "coordinates": [24.137042, 56.923961]}, "properties": {"name": "SMILE-IXP", "city": "Riga", "country": "LV", "members": 24, "url": "https://www.peeringdb.com/ix/364"}}, {"type": "Feature", "geometry": {"type": "Point", "coordinates": [-9.123454, 38.787919]}, "properties": {"name": "GigaPIX - Oporto", "city": "Oporto", "country": "PT", "members": 2, "url": "https://www.peeringdb.com/ix/368"}}, {"type": "Feature", "geometry": {"type": "Point", "coordinates": [26.115913, 44.419772]}, "properties": {"name": "Balcan-IX", "city": "Bucharest", "country": "RO", "members": 30, "url": "https://www.peeringdb.com/ix/372"}}, {"type": "Feature", "geometry": {"type": "Point", "coordinates": [14.309852, 46.62109]}, "properties": {"name": "AAIX", "city": "Klagenfurt", "country": "AT", "members": 22, "url": "https://www.peeringdb.com/ix/377"}}, {"type": "Feature", "geometry": {"type": "Point", "coordinates": [24.137042, 56.923961]}, "properties": {"name": "LIX-LV", "city": "Riga", "country": "LV", "members": 6, "url": "https://www.peeringdb.com/ix/383"}}, {"type": "Feature", "geometry": {"type": "Point", "coordinates": [-6.41897, 53.296306]}, "properties": {"name": "INEX LAN2", "city": "Dublin", "country": "IE", "members": 67, "url": "https://www.peeringdb.com/ix/387"}}, {"type": "Feature", "geometry": {"type": "Point", "coordinates": [34.889857, 32.108831]}, "properties": {"name": "IIX Israel", "city": "Petach Tikva", "country": "IL", "members": 18, "url": "https://www.peeringdb.com/ix/393"}}, {"type": "Feature", "geometry": {"type": "Point", "coordinates": [25.288454, 54.691725]}, "properties": {"name": "LIPTAM", "city": "Vilnius", "country": "LT", "members": 5, "url": "https://www.peeringdb.com/ix/400"}}, {"type": "Feature", "geometry": {"type": "Point", "coordinates": [20.486357, 44.768296]}, "properties": {"name": "SOX Serbia", "city": "Belgrade/Serbia", "country": "RS", "members": 42, "url": "https://www.peeringdb.com/ix/424"}}, {"type": "Feature", "geometry": {"type": "Point", "coordinates": [15.465817, 47.043339]}, "properties": {"name": "GraX", "city": "Graz", "country": "AT", "members": 4, "url": "https://www.peeringdb.com/ix/430"}}, {"type": "Feature", "geometry": {"type": "Point", "coordinates": [-0.460224, 51.482248]}, "properties": {"name": "IXLeeds", "city": "Leeds / Western Yorkshire", "country": "GB", "members": 19, "url": "https://www.peeringdb.com/ix/435"}}, {"type": "Feature", "geometry": {"type": "Point", "coordinates": [10.810183, 59.924726]}, "properties": {"name": "FIXO", "city": "Oslo", "country": "NO", "members": 41, "url": "https://www.peeringdb.com/ix/453"}}, {"type": "Feature", "geometry": {"type": "Point", "coordinates": [21.005015, 52.227718]}, "properties": {"name": "EPIX.Warszawa", "city": "Warsaw", "country": "PL", "members": 380, "url": "https://www.peeringdb.com/ix/474"}}, {"type": "Feature", "geometry": {"type": "Point", "coordinates": [16.618764, 49.196817]}, "properties": {"name": "CBIX", "city": "Brno", "country": "CZ", "members": 0, "url": "https://www.peeringdb.com/ix/477"}}, {"type": "Feature", "geometry": {"type": "Point", "coordinates": [21.005015, 52.227718]}, "properties": {"name": "THINX Warsaw", "city": "Warsaw", "country": "PL", "members": 145, "url": "https://www.peeringdb.com/ix/481"}}, {"type": "Feature", "geometry": {"type": "Point", "coordinates": [21.005015, 52.227718]}, "properties": {"name": "TPIX PL", "city": "Warsaw", "country": "PL", "members": 327, "url": "https://www.peeringdb.com/ix/482"}}, {"type": "Feature", "geometry": {"type": "Point", "coordinates": [33.028513, 34.684763]}, "properties": {"name": "CyIX", "city": "Nicosia / Cyprus", "country": "CY", "members": 3, "url": "https://www.peeringdb.com/ix/487"}}, {"type": "Feature", "geometry": {"type": "Point", "coordinates": [3.417531, 6.426645]}, "properties": {"name": "IXPN Lagos", "city": "Lagos", "country": "NG", "members": 117, "url": "https://www.peeringdb.com/ix/488"}}, {"type": "Feature", "geometry": {"type": "Point", "coordinates": [21.005015, 52.227718]}, "properties": {"name": "EPIX.Katowice", "city": "Katowice/Silesia", "country": "PL", "members": 395, "url": "https://www.peeringdb.com/ix/491"}}, {"type": "Feature", "geometry": {"type": "Point", "coordinates": [25.468253, 65.012644]}, "properties": {"name": "FICIX 3 (Oulu)", "city": "Oulu", "country": "FI", "members": 11, "url": "https://www.peeringdb.com/ix/492"}}, {"type": "Feature", "geometry": {"type": "Point", "coordinates": [17.961311, 52.651023]}, "properties": {"name": "CePIX.pl", "city": "Mogilno", "country": "PL", "members": 1, "url": "https://www.peeringdb.com/ix/524"}}, {"type": "Feature", "geometry": {"type": "Point", "coordinates": [25.288454, 54.691725]}, "properties": {"name": "LIXP", "city": "Vilnius", "country": "LT", "members": 11, "url": "https://www.peeringdb.com/ix/526"}}, {"type": "Feature", "geometry": {"type": "Point", "coordinates": [24.714942, 59.435184]}, "properties": {"name": "RTIX", "city": "Tallinn", "country": "EE", "members": 42, "url": "https://www.peeringdb.com/ix/538"}}, {"type": "Feature", "geometry": {"type": "Point", "coordinates": [25.288454, 54.691725]}, "properties": {"name": "Litix", "city": "Vilnius", "country": "LT", "members": 23, "url": "https://www.peeringdb.com/ix/542"}}, {"type": "Feature", "geometry": {"type": "Point", "coordinates": [21.242394, 48.73265]}, "properties": {"name": "SIX.SK Ko\u0161ice", "city": "Ko\u0161ice", "country": "SK", "members": 3, "url": "https://www.peeringdb.com/ix/559"}}, {"type": "Feature", "geometry": {"type": "Point", "coordinates": [5.326589, 60.34054]}, "properties": {"name": "BIX Bergen", "city": "Bergen", "country": "NO", "members": 5, "url": "https://www.peeringdb.com/ix/582"}}, {"type": "Feature", "geometry": {"type": "Point", "coordinates": [-2.236869, 53.463112]}, "properties": {"name": "LINX Manchester", "city": "Manchester", "country": "GB", "members": 138, "url": "https://www.peeringdb.com/ix/583"}}, {"type": "Feature", "geometry": {"type": "Point", "coordinates": [55.18695, 25.02618]}, "properties": {"name": "UAE-IX", "city": "Dubai", "country": "AE", "members": 103, "url": "https://www.peeringdb.com/ix/587"}}, {"type": "Feature", "geometry": {"type": "Point", "coordinates": [28.197517, -26.137957]}, "properties": {"name": "NAPAfrica IX Johannesburg", "city": "Johannesburg", "country": "ZA", "members": 546, "url": "https://www.peeringdb.com/ix/592"}}, {"type": "Feature", "geometry": {"type": "Point", "coordinates": [18.420575, -33.918595]}, "properties": {"name": "NAPAfrica IX Cape Town", "city": "Cape Town", "country": "ZA", "members": 279, "url": "https://www.peeringdb.com/ix/597"}}, {"type": "Feature", "geometry": {"type": "Point", "coordinates": [30.990127, -29.783372]}, "properties": {"name": "DINX", "city": "Durban", "country": "ZA", "members": 99, "url": "https://www.peeringdb.com/ix/610"}}, {"type": "Feature", "geometry": {"type": "Point", "coordinates": [8.735199, 50.11925]}, "properties": {"name": "MegaIX Frankfurt", "city": "Frankfurt", "country": "DE", "members": 110, "url": "https://www.peeringdb.com/ix/676"}}, {"type": "Feature", "geometry": {"type": "Point", "coordinates": [23.32401, 42.693819]}, "properties": {"name": "NetIX", "city": "Sofia", "country": "BG", "members": 135, "url": "https://www.peeringdb.com/ix/699"}}, {"type": "Feature", "geometry": {"type": "Point", "coordinates": [14.482978, 50.060164]}, "properties": {"name": "Peering.cz", "city": "Prague, Bratislava, Vienna, Frankfurt", "country": "CZ", "members": 187, "url": "https://www.peeringdb.com/ix/713"}}, {"type": "Feature", "geometry": {"type": "Point", "coordinates": [-0.460224, 51.482248]}, "properties": {"name": "LINX Scotland", "city": "Scotland", "country": "GB", "members": 33, "url": "https://www.peeringdb.com/ix/745"}}, {"type": "Feature", "geometry": {"type": "Point", "coordinates": [7.487899, 51.520894]}, "properties": {"name": "DO-IX", "city": "Dortmund", "country": "DE", "members": 9, "url": "https://www.peeringdb.com/ix/762"}}, {"type": "Feature", "geometry": {"type": "Point", "coordinates": [19.920621, 50.070834]}, "properties": {"name": "CIX KR", "city": "Krakow", "country": "PL", "members": 8, "url": "https://www.peeringdb.com/ix/778"}}, {"type": "Feature", "geometry": {"type": "Point", "coordinates": [8.773137, 53.076765]}, "properties": {"name": "BREM-IX", "city": "Bremen", "country": "DE", "members": 6, "url": "https://www.peeringdb.com/ix/796"}}, {"type": "Feature", "geometry": {"type": "Point", "coordinates": [21.005015, 52.227718]}, "properties": {"name": "RZ-IX", "city": "Rzeszow", "country": "PL", "members": 14, "url": "https://www.peeringdb.com/ix/828"}}, {"type": "Feature", "geometry": {"type": "Point", "coordinates": [16.618764, 49.196817]}, "properties": {"name": "BR-IX", "city": "Brno", "country": "CZ", "members": 8, "url": "https://www.peeringdb.com/ix/864"}}, {"type": "Feature", "geometry": {"type": "Point", "coordinates": [55.18695, 25.02618]}, "properties": {"name": "SH-IX", "city": "Fujairah", "country": "AE", "members": 42, "url": "https://www.peeringdb.com/ix/866"}}, {"type": "Feature", "geometry": {"type": "Point", "coordinates": [5.373865, 43.310818]}, "properties": {"name": "France-IX Marseille", "city": "Marseille", "country": "FR", "members": 110, "url": "https://www.peeringdb.com/ix/880"}}, {"type": "Feature", "geometry": {"type": "Point", "coordinates": [3.090551, 50.63768]}, "properties": {"name": "Lillix", "city": "Lille", "country": "FR", "members": 41, "url": "https://www.peeringdb.com/ix/881"}}, {"type": "Feature", "geometry": {"type": "Point", "coordinates": [30.990127, -29.783372]}, "properties": {"name": "NAPAfrica IX Durban", "city": "Durban", "country": "ZA", "members": 137, "url": "https://www.peeringdb.com/ix/969"}}, {"type": "Feature", "geometry": {"type": "Point", "coordinates": [-0.138645, 50.832243]}, "properties": {"name": "BDX BTN1", "city": "Brighton", "country": "GB", "members": 0, "url": "https://www.peeringdb.com/ix/985"}}, {"type": "Feature", "geometry": {"type": "Point", "coordinates": [16.357784, 48.214151]}, "properties": {"name": "Tirol-IX", "city": "Innsbruck/Tirol", "country": "AT", "members": 13, "url": "https://www.peeringdb.com/ix/1009"}}, {"type": "Feature", "geometry": {"type": "Point", "coordinates": [-3.180582, 51.478187]}, "properties": {"name": "LINX Wales", "city": "Cardiff", "country": "GB", "members": 10, "url": "https://www.peeringdb.com/ix/1016"}}, {"type": "Feature", "geometry": {"type": "Point", "coordinates": [2.208747, 48.782499]}, "properties": {"name": "AuvernIX", "city": "Clermont-Ferrand", "country": "FR", "members": 12, "url": "https://www.peeringdb.com/ix/1019"}}, {"type": "Feature", "geometry": {"type": "Point", "coordinates": [2.208747, 48.782499]}, "properties": {"name": "NormandIX", "city": "Normandy", "country": "FR", "members": 0, "url": "https://www.peeringdb.com/ix/1040"}}, {"type": "Feature", "geometry": {"type": "Point", "coordinates": [23.32401, 42.693819]}, "properties": {"name": "MegaIX Sofia", "city": "Sofia", "country": "BG", "members": 17, "url": "https://www.peeringdb.com/ix/1056"}}, {"type": "Feature", "geometry": {"type": "Point", "coordinates": [13.010659, 47.792026]}, "properties": {"name": "SAIX", "city": "Salzburg", "country": "AT", "members": 17, "url": "https://www.peeringdb.com/ix/1073"}}, {"type": "Feature", "geometry": {"type": "Point", "coordinates": [4.950837, 52.356394]}, "properties": {"name": "Global-IX", "city": "Amsterdam", "country": "NL", "members": 142, "url": "https://www.peeringdb.com/ix/1088"}}, {"type": "Feature", "geometry": {"type": "Point", "coordinates": [23.32401, 42.693819]}, "properties": {"name": "T-CIX", "city": "Sofia", "country": "BG", "members": 11, "url": "https://www.peeringdb.com/ix/1089"}}, {"type": "Feature", "geometry": {"type": "Point", "coordinates": [8.520255, 47.387749]}, "properties": {"name": "GE-CIX", "city": "Zurich", "country": "CH", "members": 0, "url": "https://www.peeringdb.com/ix/1094"}}, {"type": "Feature", "geometry": {"type": "Point", "coordinates": [10.183258, 36.821174]}, "properties": {"name": "TunIXP", "city": "Tunis", "country": "TN", "members": 4, "url": "https://www.peeringdb.com/ix/1105"}}, {"type": "Feature", "geometry": {"type": "Point", "coordinates": [13.31538, 38.161167]}, "properties": {"name": "DE-CIX Palermo", "city": "Palermo", "country": "IT", "members": 18, "url": "https://www.peeringdb.com/ix/1131"}}, {"type": "Feature", "geometry": {"type": "Point", "coordinates": [-3.660963, 40.466022]}, "properties": {"name": "ESpanix Madrid Upper LAN", "city": "Madrid", "country": "ES", "members": 56, "url": "https://www.peeringdb.com/ix/1146"}}, {"type": "Feature", "geometry": {"type": "Point", "coordinates": [5.373865, 43.310818]}, "properties": {"name": "DE-CIX Marseille", "city": "Marseille", "country": "FR", "members": 108, "url": "https://www.peeringdb.com/ix/1149"}}, {"type": "Feature", "geometry": {"type": "Point", "coordinates": [28.827068, 40.993532]}, "properties": {"name": "DE-CIX Istanbul", "city": "Istanbul", "country": "TR", "members": 70, "url": "https://www.peeringdb.com/ix/1150"}}, {"type": "Feature", "geometry": {"type": "Point", "coordinates": [8.773137, 53.076765]}, "properties": {"name": "CentralIX", "city": "Bremen", "country": "DE", "members": 3, "url": "https://www.peeringdb.com/ix/1151"}}, {"type": "Feature", "geometry": {"type": "Point", "coordinates": [7.160988, 51.278764]}, "properties": {"name": "United Peering - UP-IXP", "city": "Wuppertal", "country": "DE", "members": 3, "url": "https://www.peeringdb.com/ix/1156"}}, {"type": "Feature", "geometry": {"type": "Point", "coordinates": [-0.370117, 39.440181]}, "properties": {"name": "NIXVAL-IX", "city": "Valencia", "country": "ES", "members": 10, "url": "https://www.peeringdb.com/ix/1160"}}, {"type": "Feature", "geometry": {"type": "Point", "coordinates": [6.869937, 51.186111]}, "properties": {"name": "DE-CIX Dusseldorf", "city": "D\u00fcsseldorf", "country": "DE", "members": 207, "url": "https://www.peeringdb.com/ix/1214"}}, {"type": "Feature", "geometry": {"type": "Point", "coordinates": [-6.41897, 53.296306]}, "properties": {"name": "INEX Cork", "city": "Cork", "country": "IE", "members": 11, "url": "https://www.peeringdb.com/ix/1262"}}, {"type": "Feature", "geometry": {"type": "Point", "coordinates": [-3.660963, 40.466022]}, "properties": {"name": "DE-CIX Madrid", "city": "Madrid", "country": "ES", "members": 193, "url": "https://www.peeringdb.com/ix/1277"}}, {"type": "Feature", "geometry": {"type": "Point", "coordinates": [-2.933413, 53.408775]}, "properties": {"name": "IX Liverpool - MICT", "city": "Liverpool", "country": "GB", "members": 3, "url": "https://www.peeringdb.com/ix/1302"}}, {"type": "Feature", "geometry": {"type": "Point", "coordinates": [4.950837, 52.356394]}, "properties": {"name": "LSIX", "city": "Amsterdam, The Hague, Rotterdam, Naaldwijk", "country": "NL", "members": 103, "url": "https://www.peeringdb.com/ix/1308"}}, {"type": "Feature", "geometry": {"type": "Point", "coordinates": [2.208747, 48.782499]}, "properties": {"name": "Hopus", "city": "Paris, Lyon, Marseille, Geneva, Zurich, Amsterdam, Frankfurt", "country": "FR", "members": 33, "url": "https://www.peeringdb.com/ix/1320"}}, {"type": "Feature", "geometry": {"type": "Point", "coordinates": [8.735199, 50.11925]}, "properties": {"name": "Community-IX", "city": "Berlin, Frankfurt", "country": "DE", "members": 25, "url": "https://www.peeringdb.com/ix/1329"}}, {"type": "Feature", "geometry": {"type": "Point", "coordinates": [24.811988, 60.185744]}, "properties": {"name": "FICIX 1 (Espoo)", "city": "Espoo", "country": "FI", "members": 37, "url": "https://www.peeringdb.com/ix/1332"}}, {"type": "Feature", "geometry": {"type": "Point", "coordinates": [10.810183, 59.924726]}, "properties": {"name": "TIX Troms\u00f8", "city": "Troms\u00f8", "country": "NO", "members": 9, "url": "https://www.peeringdb.com/ix/1418"}}, {"type": "Feature", "geometry": {"type": "Point", "coordinates": [5.699384, 58.896502]}, "properties": {"name": "SIX Stavanger", "city": "Stavanger", "country": "NO", "members": 10, "url": "https://www.peeringdb.com/ix/1419"}}, {"type": "Feature", "geometry": {"type": "Point", "coordinates": [10.406142, 63.415675]}, "properties": {"name": "TRDIX Trondheim", "city": "Trondheim", "country": "NO", "members": 10, "url": "https://www.peeringdb.com/ix/1420"}}, {"type": "Feature", "geometry": {"type": "Point", "coordinates": [8.440485, 49.020127]}, "properties": {"name": "BW-IX Karlsruhe", "city": "Karlsruhe", "country": "DE", "members": 6, "url": "https://www.peeringdb.com/ix/1421"}}, {"type": "Feature", "geometry": {"type": "Point", "coordinates": [21.005015, 52.227718]}, "properties": {"name": "WRIX", "city": "Wroc\u0142aw", "country": "PL", "members": 34, "url": "https://www.peeringdb.com/ix/1423"}}, {"type": "Feature", "geometry": {"type": "Point", "coordinates": [24.922446, 60.204658]}, "properties": {"name": "Equinix Helsinki", "city": "Helsinki", "country": "FI", "members": 18, "url": "https://www.peeringdb.com/ix/1464"}}, {"type": "Feature", "geometry": {"type": "Point", "coordinates": [19.452131, 51.769225]}, "properties": {"name": "IX.LODZ.PL", "city": "\u0141\u00f3d\u017a", "country": "PL", "members": 10, "url": "https://www.peeringdb.com/ix/1516"}}, {"type": "Feature", "geometry": {"type": "Point", "coordinates": [-1.64368, 48.107474]}, "properties": {"name": "BreizhIX", "city": "Rennes", "country": "FR", "members": 20, "url": "https://www.peeringdb.com/ix/1670"}}, {"type": "Feature", "geometry": {"type": "Point", "coordinates": [24.137042, 56.923961]}, "properties": {"name": "MSK-IX Riga", "city": "Riga", "country": "LV", "members": 0, "url": "https://www.peeringdb.com/ix/1748"}}, {"type": "Feature", "geometry": {"type": "Point", "coordinates": [4.950837, 52.356394]}, "properties": {"name": "Asteroid Amsterdam", "city": "Amsterdam", "country": "NL", "members": 21, "url": "https://www.peeringdb.com/ix/1812"}}, {"type": "Feature", "geometry": {"type": "Point", "coordinates": [5.702234, 52.53901]}, "properties": {"name": "Speed-IX", "city": "Dronten", "country": "NL", "members": 283, "url": "https://www.peeringdb.com/ix/1842"}}, {"type": "Feature", "geometry": {"type": "Point", "coordinates": [12.002845, 57.731137]}, "properties": {"name": "STHIX - Gothenburg", "city": "Gothenburg", "country": "SE", "members": 12, "url": "https://www.peeringdb.com/ix/1868"}}, {"type": "Feature", "geometry": {"type": "Point", "coordinates": [12.377482, 55.728092]}, "properties": {"name": "STHIX - Copenhagen", "city": "Copenhagen", "country": "DK", "members": 19, "url": "https://www.peeringdb.com/ix/1869"}}, {"type": "Feature", "geometry": {"type": "Point", "coordinates": [7.495076, 9.093154]}, "properties": {"name": "IXPN Abuja", "city": "Abuja", "country": "NG", "members": 17, "url": "https://www.peeringdb.com/ix/1870"}}, {"type": "Feature", "geometry": {"type": "Point", "coordinates": [17.955657, 59.362574]}, "properties": {"name": "Equinix Stockholm", "city": "Stockholm", "country": "SE", "members": 19, "url": "https://www.peeringdb.com/ix/1923"}}, {"type": "Feature", "geometry": {"type": "Point", "coordinates": [9.17865, 45.49538]}, "properties": {"name": "Equinix Milan", "city": "Milan", "country": "IT", "members": 36, "url": "https://www.peeringdb.com/ix/1925"}}, {"type": "Feature", "geometry": {"type": "Point", "coordinates": [-6.41897, 53.296306]}, "properties": {"name": "Equinix Dublin", "city": "Dublin", "country": "IE", "members": 16, "url": "https://www.peeringdb.com/ix/1926"}}, {"type": "Feature", "geometry": {"type": "Point", "coordinates": [-2.236869, 53.463112]}, "properties": {"name": "Equinix Manchester", "city": "Manchester", "country": "GB", "members": 21, "url": "https://www.peeringdb.com/ix/1927"}}, {"type": "Feature", "geometry": {"type": "Point", "coordinates": [9.738366, 45.050118]}, "properties": {"name": "PCIX", "city": "Piacenza", "country": "IT", "members": 26, "url": "https://www.peeringdb.com/ix/1933"}}, {"type": "Feature", "geometry": {"type": "Point", "coordinates": [6.640031, 46.517316]}, "properties": {"name": "RomandIX", "city": "Lausanne", "country": "CH", "members": 20, "url": "https://www.peeringdb.com/ix/1984"}}, {"type": "Feature", "geometry": {"type": "Point", "coordinates": [-0.010775, 51.499819]}, "properties": {"name": "Equinix London", "city": "London", "country": "GB", "members": 55, "url": "https://www.peeringdb.com/ix/1997"}}, {"type": "Feature", "geometry": {"type": "Point", "coordinates": [8.735199, 50.11925]}, "properties": {"name": "Equinix Frankfurt", "city": "Frankfurt", "country": "DE", "members": 82, "url": "https://www.peeringdb.com/ix/1998"}}, {"type": "Feature", "geometry": {"type": "Point", "coordinates": [25.288454, 54.691725]}, "properties": {"name": "BALT-IX", "city": "Vilnius", "country": "LT", "members": 63, "url": "https://www.peeringdb.com/ix/2005"}}, {"type": "Feature", "geometry": {"type": "Point", "coordinates": [8.520255, 47.387749]}, "properties": {"name": "Community-IX.ch", "city": "Zurich", "country": "CH", "members": 18, "url": "https://www.peeringdb.com/ix/2013"}}, {"type": "Feature", "geometry": {"type": "Point", "coordinates": [4.950837, 52.356394]}, "properties": {"name": "Equinix Amsterdam", "city": "Amsterdam", "country": "NL", "members": 56, "url": "https://www.peeringdb.com/ix/2031"}}, {"type": "Feature", "geometry": {"type": "Point", "coordinates": [8.619718, 50.102755]}, "properties": {"name": "LOCIX FRANKFURT", "city": "Frankfurt am Main", "country": "DE", "members": 221, "url": "https://www.peeringdb.com/ix/2084"}}, {"type": "Feature", "geometry": {"type": "Point", "coordinates": [-3.660963, 40.466022]}, "properties": {"name": "Equinix Madrid", "city": "Madrid", "country": "ES", "members": 12, "url": "https://www.peeringdb.com/ix/2130"}}, {"type": "Feature", "geometry": {"type": "Point", "coordinates": [-9.123454, 38.787919]}, "properties": {"name": "Equinix Lisbon", "city": "Lisbon", "country": "PT", "members": 19, "url": "https://www.peeringdb.com/ix/2131"}}, {"type": "Feature", "geometry": {"type": "Point", "coordinates": [47.974857, 29.368048]}, "properties": {"name": "ix.kw", "city": "Kuwait City", "country": "KW", "members": 15, "url": "https://www.peeringdb.com/ix/2253"}}, {"type": "Feature", "geometry": {"type": "Point", "coordinates": [46.64639, 24.71805]}, "properties": {"name": "SAIX Saudi Arabia Riyadh", "city": "Riyadh", "country": "SA", "members": 34, "url": "https://www.peeringdb.com/ix/2299"}}, {"type": "Feature", "geometry": {"type": "Point", "coordinates": [-0.460224, 51.482248]}, "properties": {"name": "EMF-IX", "city": "Eastnor", "country": "GB", "members": 9, "url": "https://www.peeringdb.com/ix/2325"}}, {"type": "Feature", "geometry": {"type": "Point", "coordinates": [39.657172, -4.060807]}, "properties": {"name": "KIXP - Mombasa icolo", "city": "Mombasa", "country": "KE", "members": 36, "url": "https://www.peeringdb.com/ix/2362"}}, {"type": "Feature", "geometry": {"type": "Point", "coordinates": [8.887672, 47.562428]}, "properties": {"name": "CHIX-CH", "city": "Frauenfeld", "country": "CH", "members": 69, "url": "https://www.peeringdb.com/ix/2365"}}, {"type": "Feature", "geometry": {"type": "Point", "coordinates": [3.417531, 6.426645]}, "properties": {"name": "AMS-IX Lagos", "city": "Lagos", "country": "NG", "members": 49, "url": "https://www.peeringdb.com/ix/2381"}}, {"type": "Feature", "geometry": {"type": "Point", "coordinates": [22.865902, 40.661276]}, "properties": {"name": "GR-IX::Thessaloniki", "city": "Thessaloniki", "country": "GR", "members": 20, "url": "https://www.peeringdb.com/ix/2386"}}, {"type": "Feature", "geometry": {"type": "Point", "coordinates": [3.417531, 6.426645]}, "properties": {"name": "IXPN Kano", "city": "Kano", "country": "NG", "members": 6, "url": "https://www.peeringdb.com/ix/2414"}}, {"type": "Feature", "geometry": {"type": "Point", "coordinates": [7.005946, 4.80593]}, "properties": {"name": "IXPN Port Harcourt", "city": "Port Harcourt", "country": "NG", "members": 2, "url": "https://www.peeringdb.com/ix/2415"}}, {"type": "Feature", "geometry": {"type": "Point", "coordinates": [8.520255, 47.387749]}, "properties": {"name": "4b42 Internet Exchange Point", "city": "Zurich", "country": "CH", "members": 297, "url": "https://www.peeringdb.com/ix/2447"}}, {"type": "Feature", "geometry": {"type": "Point", "coordinates": [4.476941, 50.870502]}, "properties": {"name": "BelgiumIX", "city": "Brussels, Ghent, Leuven, Antwerp, Hasselt", "country": "BE", "members": 31, "url": "https://www.peeringdb.com/ix/2496"}}, {"type": "Feature", "geometry": {"type": "Point", "coordinates": [-9.123454, 38.787919]}, "properties": {"name": "DE-CIX Lisbon", "city": "Lisbon", "country": "PT", "members": 63, "url": "https://www.peeringdb.com/ix/2531"}}, {"type": "Feature", "geometry": {"type": "Point", "coordinates": [9.17865, 45.49538]}, "properties": {"name": "STIX", "city": "Bozen/Bolzano", "country": "IT", "members": 11, "url": "https://www.peeringdb.com/ix/2537"}}, {"type": "Feature", "geometry": {"type": "Point", "coordinates": [4.950837, 52.356394]}, "properties": {"name": "NL-ix 2", "city": "Amsterdam", "country": "NL", "members": 13, "url": "https://www.peeringdb.com/ix/2569"}}, {"type": "Feature", "geometry": {"type": "Point", "coordinates": [8.211035, 47.446496]}, "properties": {"name": "SBIX Zurich", "city": "Lupfig", "country": "CH", "members": 38, "url": "https://www.peeringdb.com/ix/2571"}}, {"type": "Feature", "geometry": {"type": "Point", "coordinates": [6.19872, 52.717249]}, "properties": {"name": "LOCIX NETHERLANDS", "city": "Meppel", "country": "NL", "members": 47, "url": "https://www.peeringdb.com/ix/2601"}}, {"type": "Feature", "geometry": {"type": "Point", "coordinates": [39.138468, 21.746348]}, "properties": {"name": "center3 IX Jeddah", "city": "Jeddah", "country": "SA", "members": 26, "url": "https://www.peeringdb.com/ix/2628"}}, {"type": "Feature", "geometry": {"type": "Point", "coordinates": [50.550816, 26.232321]}, "properties": {"name": "Manama IX", "city": "Manama", "country": "BH", "members": 27, "url": "https://www.peeringdb.com/ix/2631"}}, {"type": "Feature", "geometry": {"type": "Point", "coordinates": [2.137457, 41.351557]}, "properties": {"name": "Equinix Barcelona", "city": "Barcelona", "country": "ES", "members": 12, "url": "https://www.peeringdb.com/ix/2633"}}, {"type": "Feature", "geometry": {"type": "Point", "coordinates": [17.143474, 60.676748]}, "properties": {"name": "Gavlix", "city": "G\u00e4vle", "country": "SE", "members": 1, "url": "https://www.peeringdb.com/ix/2663"}}, {"type": "Feature", "geometry": {"type": "Point", "coordinates": [27.912757, 43.205497]}, "properties": {"name": "VarnaIX", "city": "Varna", "country": "BG", "members": 17, "url": "https://www.peeringdb.com/ix/2675"}}, {"type": "Feature", "geometry": {"type": "Point", "coordinates": [17.341271, 62.394687]}, "properties": {"name": "STHIX - Sundsvall", "city": "Sundsvall", "country": "SE", "members": 3, "url": "https://www.peeringdb.com/ix/2677"}}, {"type": "Feature", "geometry": {"type": "Point", "coordinates": [24.922446, 60.204658]}, "properties": {"name": "IXP FI HEL", "city": "Helsinki", "country": "FI", "members": 17, "url": "https://www.peeringdb.com/ix/2700"}}, {"type": "Feature", "geometry": {"type": "Point", "coordinates": [-0.010775, 51.499819]}, "properties": {"name": "IXP UK LON", "city": "London", "country": "GB", "members": 21, "url": "https://www.peeringdb.com/ix/2704"}}, {"type": "Feature", "geometry": {"type": "Point", "coordinates": [5.702234, 52.53901]}, "properties": {"name": "IXP NL DRO", "city": "Dronten", "country": "NL", "members": 25, "url": "https://www.peeringdb.com/ix/2705"}}, {"type": "Feature", "geometry": {"type": "Point", "coordinates": [8.735199, 50.11925]}, "properties": {"name": "IXP NUR", "city": "N\u00fcrnberg", "country": "DE", "members": 3, "url": "https://www.peeringdb.com/ix/2706"}}, {"type": "Feature", "geometry": {"type": "Point", "coordinates": [-4.999688, 34.037123]}, "properties": {"name": "CAS-IX", "city": "Casablanca", "country": "MA", "members": 3, "url": "https://www.peeringdb.com/ix/2713"}}, {"type": "Feature", "geometry": {"type": "Point", "coordinates": [2.208747, 48.782499]}, "properties": {"name": "BrestIX", "city": "Brest", "country": "FR", "members": 2, "url": "https://www.peeringdb.com/ix/2726"}}, {"type": "Feature", "geometry": {"type": "Point", "coordinates": [8.735199, 50.11925]}, "properties": {"name": "LOCIX DUSSELDORF", "city": "Dusseldorf", "country": "DE", "members": 182, "url": "https://www.peeringdb.com/ix/2730"}}, {"type": "Feature", "geometry": {"type": "Point", "coordinates": [26.115913, 44.419772]}, "properties": {"name": "RO-IX", "city": "Bucharest", "country": "RO", "members": 2, "url": "https://www.peeringdb.com/ix/2732"}}, {"type": "Feature", "geometry": {"type": "Point", "coordinates": [4.950837, 52.356394]}, "properties": {"name": "SBIX Amsterdam", "city": "Amsterdam", "country": "NL", "members": 6, "url": "https://www.peeringdb.com/ix/2753"}}, {"type": "Feature", "geometry": {"type": "Point", "coordinates": [8.735199, 50.11925]}, "properties": {"name": "Rottweiler Internet Exchange", "city": "Rottweil", "country": "DE", "members": 3, "url": "https://www.peeringdb.com/ix/2774"}}, {"type": "Feature", "geometry": {"type": "Point", "coordinates": [17.955657, 59.362574]}, "properties": {"name": "STHIX - Ume\u00e5", "city": "Ume\u00e5", "country": "SE", "members": 3, "url": "https://www.peeringdb.com/ix/2785"}}, {"type": "Feature", "geometry": {"type": "Point", "coordinates": [28.827068, 40.993532]}, "properties": {"name": "TR-IX", "city": "Istanbul", "country": "TR", "members": 12, "url": "https://www.peeringdb.com/ix/2787"}}, {"type": "Feature", "geometry": {"type": "Point", "coordinates": [-0.010775, 51.499819]}, "properties": {"name": "LONAP Multicast", "city": "London", "country": "GB", "members": 0, "url": "https://www.peeringdb.com/ix/2801"}}, {"type": "Feature", "geometry": {"type": "Point", "coordinates": [26.115913, 44.419772]}, "properties": {"name": "RO-CIX", "city": "Braila", "country": "RO", "members": 4, "url": "https://www.peeringdb.com/ix/2804"}}, {"type": "Feature", "geometry": {"type": "Point", "coordinates": [39.657172, -4.060807]}, "properties": {"name": "Asteroid Mombasa", "city": "Mombasa", "country": "KE", "members": 2, "url": "https://www.peeringdb.com/ix/2815"}}, {"type": "Feature", "geometry": {"type": "Point", "coordinates": [51.437444, 25.325315]}, "properties": {"name": "QIX Qatar", "city": "Doha", "country": "QA", "members": 27, "url": "https://www.peeringdb.com/ix/2819"}}, {"type": "Feature", "geometry": {"type": "Point", "coordinates": [17.955657, 59.362574]}, "properties": {"name": "Netnod Stockholm GREEN -- MTU4470", "city": "Stockholm", "country": "SE", "members": 73, "url": "https://www.peeringdb.com/ix/2845"}}, {"type": "Feature", "geometry": {"type": "Point", "coordinates": [17.955657, 59.362574]}, "properties": {"name": "Netnod Stockholm BLUE -- MTU1500", "city": "Stockholm", "country": "SE", "members": 178, "url": "https://www.peeringdb.com/ix/2846"}}, {"type": "Feature", "geometry": {"type": "Point", "coordinates": [17.955657, 59.362574]}, "properties": {"name": "Netnod Stockholm BLUE -- MTU4470", "city": "Stockholm", "country": "SE", "members": 73, "url": "https://www.peeringdb.com/ix/2847"}}, {"type": "Feature", "geometry": {"type": "Point", "coordinates": [14.482978, 50.060164]}, "properties": {"name": "NIX.CZ FENIX", "city": "Prague", "country": "CZ", "members": 8, "url": "https://www.peeringdb.com/ix/2848"}}, {"type": "Feature", "geometry": {"type": "Point", "coordinates": [-9.123454, 38.787919]}, "properties": {"name": "GigaPIX - LAN 2", "city": "Lisbon", "country": "PT", "members": 18, "url": "https://www.peeringdb.com/ix/2849"}}, {"type": "Feature", "geometry": {"type": "Point", "coordinates": [24.922446, 60.204658]}, "properties": {"name": "FICIX 2 (Helsinki) IPv6 MTU 9000", "city": "Helsinki", "country": "FI", "members": 7, "url": "https://www.peeringdb.com/ix/2853"}}, {"type": "Feature", "geometry": {"type": "Point", "coordinates": [28.197517, -26.137957]}, "properties": {"name": "JINX Voice", "city": "Johannesburg", "country": "ZA", "members": 4, "url": "https://www.peeringdb.com/ix/2861"}}, {"type": "Feature", "geometry": {"type": "Point", "coordinates": [12.002845, 57.731137]}, "properties": {"name": "Netnod Gothenburg -- MTU4470", "city": "Gothenburg", "country": "SE", "members": 13, "url": "https://www.peeringdb.com/ix/2865"}}, {"type": "Feature", "geometry": {"type": "Point", "coordinates": [12.377482, 55.728092]}, "properties": {"name": "Netnod Copenhagen BLUE -- MTU9K", "city": "Malmo / Copenhagen", "country": "DK", "members": 69, "url": "https://www.peeringdb.com/ix/2868"}}, {"type": "Feature", "geometry": {"type": "Point", "coordinates": [17.955657, 59.362574]}, "properties": {"name": "Netnod Sundsvall -- MTU4470", "city": "Sundsvall / Gavle", "country": "SE", "members": 10, "url": "https://www.peeringdb.com/ix/2869"}}, {"type": "Feature", "geometry": {"type": "Point", "coordinates": [18.420575, -33.918595]}, "properties": {"name": "CINX Voice", "city": "Cape Town", "country": "ZA", "members": 0, "url": "https://www.peeringdb.com/ix/2899"}}, {"type": "Feature", "geometry": {"type": "Point", "coordinates": [25.468253, 65.012644]}, "properties": {"name": "FICIX 3 (Oulu) IPv6 MTU 9000", "city": "Oulu", "country": "FI", "members": 2, "url": "https://www.peeringdb.com/ix/2904"}}, {"type": "Feature", "geometry": {"type": "Point", "coordinates": [21.005015, 52.227718]}, "properties": {"name": "Giganet IXN Warsaw", "city": "Warsaw", "country": "PL", "members": 47, "url": "https://www.peeringdb.com/ix/2918"}}, {"type": "Feature", "geometry": {"type": "Point", "coordinates": [-2.933413, 53.408775]}, "properties": {"name": "IX Liverpool - Baltic Bubble", "city": "Liverpool", "country": "GB", "members": 3, "url": "https://www.peeringdb.com/ix/2955"}}, {"type": "Feature", "geometry": {"type": "Point", "coordinates": [-2.933413, 53.408775]}, "properties": {"name": "IX Liverpool Internet of Things LAN", "city": "Liverpool", "country": "GB", "members": 0, "url": "https://www.peeringdb.com/ix/2956"}}, {"type": "Feature", "geometry": {"type": "Point", "coordinates": [-2.933413, 53.408775]}, "properties": {"name": "IX Liverpool GRX Peering Exchange (5G)", "city": "Liverpool", "country": "GB", "members": 0, "url": "https://www.peeringdb.com/ix/2957"}}, {"type": "Feature", "geometry": {"type": "Point", "coordinates": [24.811988, 60.185744]}, "properties": {"name": "FICIX 1 (Espoo) IPv6 MTU 9000", "city": "Espoo", "country": "FI", "members": 6, "url": "https://www.peeringdb.com/ix/2963"}}, {"type": "Feature", "geometry": {"type": "Point", "coordinates": [24.714942, 59.435184]}, "properties": {"name": "PITER-IX Tallinn", "city": "Tallinn", "country": "EE", "members": 69, "url": "https://www.peeringdb.com/ix/3018"}}, {"type": "Feature", "geometry": {"type": "Point", "coordinates": [24.137042, 56.923961]}, "properties": {"name": "PITER-IX Riga", "city": "Riga", "country": "LV", "members": 70, "url": "https://www.peeringdb.com/ix/3019"}}, {"type": "Feature", "geometry": {"type": "Point", "coordinates": [-1.762407, 53.79512]}, "properties": {"name": "BFD-IX", "city": "Bradford", "country": "GB", "members": 34, "url": "https://www.peeringdb.com/ix/3098"}}, {"type": "Feature", "geometry": {"type": "Point", "coordinates": [-4.999688, 34.037123]}, "properties": {"name": "FEZIX", "city": "Fez", "country": "MA", "members": 3, "url": "https://www.peeringdb.com/ix/3117"}}, {"type": "Feature", "geometry": {"type": "Point", "coordinates": [8.735199, 50.11925]}, "properties": {"name": "SBIX Dusseldorf", "city": "Dusseldorf", "country": "DE", "members": 5, "url": "https://www.peeringdb.com/ix/3118"}}, {"type": "Feature", "geometry": {"type": "Point", "coordinates": [21.005015, 52.227718]}, "properties": {"name": "PIONIER-IX", "city": "Bia\u0142ystok, Pozna\u0144, Wroc\u0142aw, Szczecin, Opole, Cz\u0119stochowa", "country": "PL", "members": 5, "url": "https://www.peeringdb.com/ix/3122"}}, {"type": "Feature", "geometry": {"type": "Point", "coordinates": [-3.660963, 40.466022]}, "properties": {"name": "IXPlay Global Peers", "city": "Madrid", "country": "ES", "members": 60, "url": "https://www.peeringdb.com/ix/3149"}}, {"type": "Feature", "geometry": {"type": "Point", "coordinates": [23.745514, 37.973352]}, "properties": {"name": "SEECIX", "city": "Athens", "country": "GR", "members": 16, "url": "https://www.peeringdb.com/ix/3184"}}, {"type": "Feature", "geometry": {"type": "Point", "coordinates": [-0.010775, 51.499819]}, "properties": {"name": "BBIX London", "city": "London", "country": "GB", "members": 3, "url": "https://www.peeringdb.com/ix/3189"}}, {"type": "Feature", "geometry": {"type": "Point", "coordinates": [4.950837, 52.356394]}, "properties": {"name": "BBIX Amsterdam", "city": "Amsterdam", "country": "NL", "members": 50, "url": "https://www.peeringdb.com/ix/3190"}}, {"type": "Feature", "geometry": {"type": "Point", "coordinates": [8.735199, 50.11925]}, "properties": {"name": "STACIX", "city": "Frankfurt", "country": "DE", "members": 10, "url": "https://www.peeringdb.com/ix/3211"}}, {"type": "Feature", "geometry": {"type": "Point", "coordinates": [-1.762407, 53.79512]}, "properties": {"name": "IXBradford", "city": "Bradford", "country": "GB", "members": 9, "url": "https://www.peeringdb.com/ix/3278"}}, {"type": "Feature", "geometry": {"type": "Point", "coordinates": [8.440485, 49.020127]}, "properties": {"name": "KA-NIX", "city": "Karlsruhe", "country": "DE", "members": 8, "url": "https://www.peeringdb.com/ix/3280"}}, {"type": "Feature", "geometry": {"type": "Point", "coordinates": [22.865902, 40.661276]}, "properties": {"name": "THESS-IX", "city": "Thessaloniki", "country": "GR", "members": 12, "url": "https://www.peeringdb.com/ix/3283"}}, {"type": "Feature", "geometry": {"type": "Point", "coordinates": [6.52852, 53.246048]}, "properties": {"name": "Grunix", "city": "Groningen", "country": "NL", "members": 7, "url": "https://www.peeringdb.com/ix/3288"}}, {"type": "Feature", "geometry": {"type": "Point", "coordinates": [13.31538, 38.161167]}, "properties": {"name": "MIX Palermo", "city": "Palermo", "country": "IT", "members": 18, "url": "https://www.peeringdb.com/ix/3290"}}, {"type": "Feature", "geometry": {"type": "Point", "coordinates": [24.922446, 60.204658]}, "properties": {"name": "PITER-IX Helsinki", "city": "Helsinki", "country": "FI", "members": 127, "url": "https://www.peeringdb.com/ix/3299"}}, {"type": "Feature", "geometry": {"type": "Point", "coordinates": [31.246959, 30.145975]}, "properties": {"name": "PyramIX", "city": "Cairo", "country": "EG", "members": 18, "url": "https://www.peeringdb.com/ix/3302"}}, {"type": "Feature", "geometry": {"type": "Point", "coordinates": [57.893844, 23.664446]}, "properties": {"name": "Equinix Muscat", "city": "Muscat", "country": "OM", "members": 7, "url": "https://www.peeringdb.com/ix/3335"}}, {"type": "Feature", "geometry": {"type": "Point", "coordinates": [35.010403, 29.532079]}, "properties": {"name": "Aqaba IX", "city": "Aqaba", "country": "JO", "members": 19, "url": "https://www.peeringdb.com/ix/3366"}}, {"type": "Feature", "geometry": {"type": "Point", "coordinates": [-1.500107, 55.016869]}, "properties": {"name": "NCL-IX", "city": "Newcastle", "country": "GB", "members": 6, "url": "https://www.peeringdb.com/ix/3373"}}, {"type": "Feature", "geometry": {"type": "Point", "coordinates": [-0.310332, 43.320905]}, "properties": {"name": "B\u00e9arnIX", "city": "Pau", "country": "FR", "members": 9, "url": "https://www.peeringdb.com/ix/3384"}}, {"type": "Feature", "geometry": {"type": "Point", "coordinates": [4.950837, 52.356394]}, "properties": {"name": "HamroIX-Amsterdam", "city": "Amsterdam", "country": "NL", "members": 4, "url": "https://www.peeringdb.com/ix/3393"}}, {"type": "Feature", "geometry": {"type": "Point", "coordinates": [28.197517, -26.137957]}, "properties": {"name": "NAPAfrica MAPS Johannesburg", "city": "Johannesburg", "country": "ZA", "members": 26, "url": "https://www.peeringdb.com/ix/3403"}}, {"type": "Feature", "geometry": {"type": "Point", "coordinates": [8.735199, 50.11925]}, "properties": {"name": "Ruhr-CIX", "city": "Ruhr Region", "country": "DE", "members": 9, "url": "https://www.peeringdb.com/ix/3405"}}, {"type": "Feature", "geometry": {"type": "Point", "coordinates": [12.512156, 41.898919]}, "properties": {"name": "HamroIX-Rome", "city": "Rome", "country": "IT", "members": 1, "url": "https://www.peeringdb.com/ix/3430"}}, {"type": "Feature", "geometry": {"type": "Point", "coordinates": [-1.550442, 47.203142]}, "properties": {"name": "Ouest.Network", "city": "Nantes", "country": "FR", "members": 9, "url": "https://www.peeringdb.com/ix/3436"}}, {"type": "Feature", "geometry": {"type": "Point", "coordinates": [2.137457, 41.351557]}, "properties": {"name": "DE-CIX Barcelona", "city": "Barcelona", "country": "ES", "members": 42, "url": "https://www.peeringdb.com/ix/3446"}}, {"type": "Feature", "geometry": {"type": "Point", "coordinates": [-21.907494, 64.144974]}, "properties": {"name": "M\u00fali IXP", "city": "Reykjavik", "country": "IS", "members": 3, "url": "https://www.peeringdb.com/ix/3448"}}, {"type": "Feature", "geometry": {"type": "Point", "coordinates": [26.115913, 44.419772]}, "properties": {"name": "DSIX", "city": "Bucharest", "country": "RO", "members": 14, "url": "https://www.peeringdb.com/ix/3477"}}, {"type": "Feature", "geometry": {"type": "Point", "coordinates": [4.950837, 52.356394]}, "properties": {"name": "Frys-IX", "city": "Frysl\u00e2n", "country": "NL", "members": 286, "url": "https://www.peeringdb.com/ix/3512"}}, {"type": "Feature", "geometry": {"type": "Point", "coordinates": [12.503993, 41.66855]}, "properties": {"name": "SIIX Pomezia", "city": "Pomezia", "country": "IT", "members": 11, "url": "https://www.peeringdb.com/ix/3528"}}, {"type": "Feature", "geometry": {"type": "Point", "coordinates": [33.028513, 34.684763]}, "properties": {"name": "JumboIX Cyprus", "city": "Limassol", "country": "CY", "members": 4, "url": "https://www.peeringdb.com/ix/3541"}}, {"type": "Feature", "geometry": {"type": "Point", "coordinates": [8.557273, 47.432702]}, "properties": {"name": "Free-IX Switzerland", "city": "Geneva, Zurich, Lugano", "country": "CH", "members": 19, "url": "https://www.peeringdb.com/ix/3570"}}, {"type": "Feature", "geometry": {"type": "Point", "coordinates": [6.955457, 49.240384]}, "properties": {"name": "SaarCix", "city": "Saarbr\u00fccken", "country": "DE", "members": 1, "url": "https://www.peeringdb.com/ix/3572"}}, {"type": "Feature", "geometry": {"type": "Point", "coordinates": [16.930076, 52.409911]}, "properties": {"name": "EPIX.Poznan", "city": "Poznan", "country": "PL", "members": 24, "url": "https://www.peeringdb.com/ix/3594"}}, {"type": "Feature", "geometry": {"type": "Point", "coordinates": [17.955657, 59.362574]}, "properties": {"name": "SONIX Stockholm", "city": "Stockholm", "country": "SE", "members": 80, "url": "https://www.peeringdb.com/ix/3607"}}, {"type": "Feature", "geometry": {"type": "Point", "coordinates": [28.827068, 40.993532]}, "properties": {"name": "GIBIRIX", "city": "\u0130stanbul", "country": "TR", "members": 20, "url": "https://www.peeringdb.com/ix/3659"}}, {"type": "Feature", "geometry": {"type": "Point", "coordinates": [17.955657, 59.362574]}, "properties": {"name": "SOLIX MTU4470", "city": "Stockholm", "country": "SE", "members": 18, "url": "https://www.peeringdb.com/ix/3702"}}, {"type": "Feature", "geometry": {"type": "Point", "coordinates": [17.095572, 48.118746]}, "properties": {"name": "PoIX", "city": "Presov", "country": "SK", "members": 5, "url": "https://www.peeringdb.com/ix/3709"}}, {"type": "Feature", "geometry": {"type": "Point", "coordinates": [24.922446, 60.204658]}, "properties": {"name": "Netnod Helsinki BLUE -- MTU9K", "city": "Helsinki", "country": "FI", "members": 16, "url": "https://www.peeringdb.com/ix/3712"}}, {"type": "Feature", "geometry": {"type": "Point", "coordinates": [24.922446, 60.204658]}, "properties": {"name": "Netnod Helsinki GREEN -- MTU9K", "city": "Helsinki", "country": "FI", "members": 16, "url": "https://www.peeringdb.com/ix/3713"}}, {"type": "Feature", "geometry": {"type": "Point", "coordinates": [11.363497, 44.508512]}, "properties": {"name": "MIX Bologna", "city": "Bologna", "country": "IT", "members": 19, "url": "https://www.peeringdb.com/ix/3730"}}, {"type": "Feature", "geometry": {"type": "Point", "coordinates": [-0.010775, 51.499819]}, "properties": {"name": "RapidIX LON1", "city": "London", "country": "GB", "members": 8, "url": "https://www.peeringdb.com/ix/3732"}}, {"type": "Feature", "geometry": {"type": "Point", "coordinates": [36.896534, -1.34014]}, "properties": {"name": "Asteroid Nairobi", "city": "Nairobi", "country": "KE", "members": 5, "url": "https://www.peeringdb.com/ix/3734"}}, {"type": "Feature", "geometry": {"type": "Point", "coordinates": [8.735199, 50.11925]}, "properties": {"name": "PITER-IX Frankfurt", "city": "Frankfurt", "country": "DE", "members": 154, "url": "https://www.peeringdb.com/ix/3739"}}, {"type": "Feature", "geometry": {"type": "Point", "coordinates": [12.002845, 57.731137]}, "properties": {"name": "SONIX Gothenburg", "city": "Gothenburg", "country": "SE", "members": 7, "url": "https://www.peeringdb.com/ix/3745"}}, {"type": "Feature", "geometry": {"type": "Point", "coordinates": [24.137042, 56.923961]}, "properties": {"name": "GLV-IX", "city": "Riga", "country": "LV", "members": 7, "url": "https://www.peeringdb.com/ix/3750"}}, {"type": "Feature", "geometry": {"type": "Point", "coordinates": [24.714942, 59.435184]}, "properties": {"name": "IIX Estonia", "city": "Tallinn", "country": "EE", "members": 4, "url": "https://www.peeringdb.com/ix/3751"}}, {"type": "Feature", "geometry": {"type": "Point", "coordinates": [8.557273, 47.432702]}, "properties": {"name": "FogIXP", "city": "Avers", "country": "CH", "members": 425, "url": "https://www.peeringdb.com/ix/3756"}}, {"type": "Feature", "geometry": {"type": "Point", "coordinates": [16.80333, 41.109552]}, "properties": {"name": "Namex Bari", "city": "Bari", "country": "IT", "members": 26, "url": "https://www.peeringdb.com/ix/3782"}}, {"type": "Feature", "geometry": {"type": "Point", "coordinates": [4.950837, 52.356394]}, "properties": {"name": "ERA-IX Amsterdam", "city": "Amsterdam", "country": "NL", "members": 175, "url": "https://www.peeringdb.com/ix/3789"}}, {"type": "Feature", "geometry": {"type": "Point", "coordinates": [31.246959, 30.145975]}, "properties": {"name": "EG-IX", "city": "Cairo", "country": "EG", "members": 18, "url": "https://www.peeringdb.com/ix/3812"}}, {"type": "Feature", "geometry": {"type": "Point", "coordinates": [-0.010775, 51.499819]}, "properties": {"name": "BGP.Exchange - London", "city": "London", "country": "GB", "members": 108, "url": "https://www.peeringdb.com/ix/3821"}}, {"type": "Feature", "geometry": {"type": "Point", "coordinates": [4.950837, 52.356394]}, "properties": {"name": "BGP.Exchange - Amsterdam", "city": "Amsterdam", "country": "NL", "members": 172, "url": "https://www.peeringdb.com/ix/3822"}}, {"type": "Feature", "geometry": {"type": "Point", "coordinates": [12.512156, 41.898919]}, "properties": {"name": "BGP.Exchange - Rome", "city": "Rome", "country": "IT", "members": 31, "url": "https://www.peeringdb.com/ix/3824"}}, {"type": "Feature", "geometry": {"type": "Point", "coordinates": [8.735199, 50.11925]}, "properties": {"name": "BGP.Exchange - Frankfurt", "city": "Frankfurt", "country": "DE", "members": 212, "url": "https://www.peeringdb.com/ix/3829"}}, {"type": "Feature", "geometry": {"type": "Point", "coordinates": [8.520255, 47.387749]}, "properties": {"name": "BGP.Exchange - Zurich", "city": "Zurich", "country": "CH", "members": 87, "url": "https://www.peeringdb.com/ix/3830"}}, {"type": "Feature", "geometry": {"type": "Point", "coordinates": [2.137457, 41.351557]}, "properties": {"name": "BGP.Exchange - Barcelona", "city": "Barcelona", "country": "ES", "members": 52, "url": "https://www.peeringdb.com/ix/3832"}}, {"type": "Feature", "geometry": {"type": "Point", "coordinates": [34.858475, 32.084691]}, "properties": {"name": "BGP.Exchange - Tel-Aviv", "city": "Tel-Aviv", "country": "IL", "members": 9, "url": "https://www.peeringdb.com/ix/3840"}}, {"type": "Feature", "geometry": {"type": "Point", "coordinates": [28.197517, -26.137957]}, "properties": {"name": "BGP.Exchange - Johannesburg", "city": "Johannesburg", "country": "ZA", "members": 16, "url": "https://www.peeringdb.com/ix/3843"}}, {"type": "Feature", "geometry": {"type": "Point", "coordinates": [8.735199, 50.11925]}, "properties": {"name": "BGP.Exchange - Dusseldorf", "city": "Dusseldorf", "country": "DE", "members": 142, "url": "https://www.peeringdb.com/ix/3844"}}, {"type": "Feature", "geometry": {"type": "Point", "coordinates": [-0.010775, 51.499819]}, "properties": {"name": "SBIX London", "city": "London", "country": "GB", "members": 1, "url": "https://www.peeringdb.com/ix/3877"}}, {"type": "Feature", "geometry": {"type": "Point", "coordinates": [18.420575, -33.918595]}, "properties": {"name": "NAPAfrica MAPS Cape Town", "city": "Cape Town", "country": "ZA", "members": 5, "url": "https://www.peeringdb.com/ix/3884"}}, {"type": "Feature", "geometry": {"type": "Point", "coordinates": [2.208747, 48.782499]}, "properties": {"name": "BGP.Exchange - Paris", "city": "Paris", "country": "FR", "members": 51, "url": "https://www.peeringdb.com/ix/3913"}}, {"type": "Feature", "geometry": {"type": "Point", "coordinates": [21.005015, 52.227718]}, "properties": {"name": "1-IX EU", "city": "New-York, London, Paris, Madrid, Frankfurt, Amsterdam, Warsaw, Bratislava, Lviv, Kyiv, Hong Kong", "country": "PL", "members": 180, "url": "https://www.peeringdb.com/ix/3958"}}, {"type": "Feature", "geometry": {"type": "Point", "coordinates": [6.52852, 53.246048]}, "properties": {"name": "Grunn-IX", "city": "Groningen", "country": "NL", "members": 3, "url": "https://www.peeringdb.com/ix/3968"}}, {"type": "Feature", "geometry": {"type": "Point", "coordinates": [4.950837, 52.356394]}, "properties": {"name": "INTERIX", "city": "Amsterdam", "country": "NL", "members": 192, "url": "https://www.peeringdb.com/ix/3990"}}, {"type": "Feature", "geometry": {"type": "Point", "coordinates": [3.417531, 6.426645]}, "properties": {"name": "AF-CIX", "city": "Lagos", "country": "NG", "members": 39, "url": "https://www.peeringdb.com/ix/4000"}}, {"type": "Feature", "geometry": {"type": "Point", "coordinates": [-0.611276, 38.291392]}, "properties": {"name": "Mario IX", "city": "Elche", "country": "ES", "members": 0, "url": "https://www.peeringdb.com/ix/4002"}}, {"type": "Feature", "geometry": {"type": "Point", "coordinates": [12.39941, 51.364861]}, "properties": {"name": "DE-CIX Leipzig", "city": "Leipzig", "country": "DE", "members": 16, "url": "https://www.peeringdb.com/ix/4004"}}, {"type": "Feature", "geometry": {"type": "Point", "coordinates": [3.090551, 50.63768]}, "properties": {"name": "France-IX Lille", "city": "Lille", "country": "FR", "members": 17, "url": "https://www.peeringdb.com/ix/4005"}}, {"type": "Feature", "geometry": {"type": "Point", "coordinates": [39.138468, 21.746348]}, "properties": {"name": "SAIX Saudi Arabia Jeddah", "city": "Jeddah", "country": "SA", "members": 14, "url": "https://www.peeringdb.com/ix/4018"}}, {"type": "Feature", "geometry": {"type": "Point", "coordinates": [4.950837, 52.356394]}, "properties": {"name": "SeptemberIX", "city": "Amsterdam", "country": "NL", "members": 0, "url": "https://www.peeringdb.com/ix/4034"}}, {"type": "Feature", "geometry": {"type": "Point", "coordinates": [8.735199, 50.11925]}, "properties": {"name": "Electron IX", "city": "Frankfurt", "country": "DE", "members": 0, "url": "https://www.peeringdb.com/ix/4036"}}, {"type": "Feature", "geometry": {"type": "Point", "coordinates": [-1.853175, 52.451493]}, "properties": {"name": "Edge IX Birmingham", "city": "Birmingham", "country": "GB", "members": 0, "url": "https://www.peeringdb.com/ix/4040"}}, {"type": "Feature", "geometry": {"type": "Point", "coordinates": [10.810183, 59.924726]}, "properties": {"name": "DE-CIX Oslo", "city": "Oslo", "country": "NO", "members": 9, "url": "https://www.peeringdb.com/ix/4041"}}, {"type": "Feature", "geometry": {"type": "Point", "coordinates": [10.810183, 59.924726]}, "properties": {"name": "DE-CIX Kristiansand", "city": "Kristiansand", "country": "NO", "members": 7, "url": "https://www.peeringdb.com/ix/4042"}}, {"type": "Feature", "geometry": {"type": "Point", "coordinates": [12.377482, 55.728092]}, "properties": {"name": "DE-CIX Copenhagen", "city": "Copenhagen", "country": "DK", "members": 11, "url": "https://www.peeringdb.com/ix/4043"}}, {"type": "Feature", "geometry": {"type": "Point", "coordinates": [24.922446, 60.204658]}, "properties": {"name": "DE-CIX Helsinki", "city": "Helsinki", "country": "FI", "members": 10, "url": "https://www.peeringdb.com/ix/4044"}}, {"type": "Feature", "geometry": {"type": "Point", "coordinates": [9.17865, 45.49538]}, "properties": {"name": "Namex Napoli", "city": "Napoli", "country": "IT", "members": 14, "url": "https://www.peeringdb.com/ix/4046"}}, {"type": "Feature", "geometry": {"type": "Point", "coordinates": [-0.611276, 38.291392]}, "properties": {"name": "ELX-IX", "city": "Elche", "country": "ES", "members": 0, "url": "https://www.peeringdb.com/ix/4064"}}, {"type": "Feature", "geometry": {"type": "Point", "coordinates": [-22.559051, 64.004152]}, "properties": {"name": "REMIX", "city": "Capital Region", "country": "IS", "members": 2, "url": "https://www.peeringdb.com/ix/4065"}}, {"type": "Feature", "geometry": {"type": "Point", "coordinates": [8.495221, 55.510081]}, "properties": {"name": "DE-CIX Esbjerg", "city": "Esbjerg", "country": "DK", "members": 6, "url": "https://www.peeringdb.com/ix/4069"}}, {"type": "Feature", "geometry": {"type": "Point", "coordinates": [-0.010775, 51.499819]}, "properties": {"name": "BGPHaus", "city": "London", "country": "GB", "members": 1, "url": "https://www.peeringdb.com/ix/4073"}}, {"type": "Feature", "geometry": {"type": "Point", "coordinates": [16.031468, 45.785779]}, "properties": {"name": "ADRIA-IX", "city": "Rijeka", "country": "HR", "members": 0, "url": "https://www.peeringdb.com/ix/4085"}}, {"type": "Feature", "geometry": {"type": "Point", "coordinates": [25.574114, -33.9508]}, "properties": {"name": "NMBINX", "city": "Gqeberha", "country": "ZA", "members": 12, "url": "https://www.peeringdb.com/ix/4148"}}, {"type": "Feature", "geometry": {"type": "Point", "coordinates": [12.377482, 55.728092]}, "properties": {"name": "NorthIX", "city": "Copenhagen", "country": "DK", "members": 11, "url": "https://www.peeringdb.com/ix/4154"}}, {"type": "Feature", "geometry": {"type": "Point", "coordinates": [1.423103, 43.620447]}, "properties": {"name": "France-IX Toulouse", "city": "Toulouse", "country": "FR", "members": 13, "url": "https://www.peeringdb.com/ix/4162"}}, {"type": "Feature", "geometry": {"type": "Point", "coordinates": [9.17865, 45.49538]}, "properties": {"name": "Ge-DIX", "city": "Genova", "country": "IT", "members": 7, "url": "https://www.peeringdb.com/ix/4172"}}, {"type": "Feature", "geometry": {"type": "Point", "coordinates": [39.138468, 21.746348]}, "properties": {"name": "Equinix Jeddah", "city": "Jeddah", "country": "SA", "members": 5, "url": "https://www.peeringdb.com/ix/4174"}}, {"type": "Feature", "geometry": {"type": "Point", "coordinates": [8.735199, 50.11925]}, "properties": {"name": "City-IX Frankfurt", "city": "Frankfurt", "country": "DE", "members": 7, "url": "https://www.peeringdb.com/ix/4175"}}, {"type": "Feature", "geometry": {"type": "Point", "coordinates": [23.32401, 42.693819]}, "properties": {"name": "TurkIX Sofia", "city": "Sofia", "country": "BG", "members": 29, "url": "https://www.peeringdb.com/ix/4186"}}, {"type": "Feature", "geometry": {"type": "Point", "coordinates": [12.377482, 55.728092]}, "properties": {"name": "LabIX", "city": "Copenhagen", "country": "DK", "members": 4, "url": "https://www.peeringdb.com/ix/4193"}}, {"type": "Feature", "geometry": {"type": "Point", "coordinates": [8.735199, 50.11925]}, "properties": {"name": "FogIXP Frankfurt", "city": "Frankfurt", "country": "DE", "members": 47, "url": "https://www.peeringdb.com/ix/4200"}}, {"type": "Feature", "geometry": {"type": "Point", "coordinates": [36.896534, -1.34014]}, "properties": {"name": "LINX Nairobi", "city": "Nairobi", "country": "KE", "members": 53, "url": "https://www.peeringdb.com/ix/4231"}}, {"type": "Feature", "geometry": {"type": "Point", "coordinates": [8.735199, 50.11925]}, "properties": {"name": "Giganet IXN Frankfurt", "city": "Frankfurt", "country": "DE", "members": 45, "url": "https://www.peeringdb.com/ix/4233"}}, {"type": "Feature", "geometry": {"type": "Point", "coordinates": [4.843612, 45.729237]}, "properties": {"name": "BGP.Exchange - Lyon", "city": "Lyon", "country": "FR", "members": 26, "url": "https://www.peeringdb.com/ix/4245"}}, {"type": "Feature", "geometry": {"type": "Point", "coordinates": [16.357784, 48.214151]}, "properties": {"name": "VOIXP", "city": "Vienna", "country": "AT", "members": 6, "url": "https://www.peeringdb.com/ix/4270"}}, {"type": "Feature", "geometry": {"type": "Point", "coordinates": [13.731843, 51.038826]}, "properties": {"name": "DD-IX", "city": "Dresden", "country": "DE", "members": 11, "url": "https://www.peeringdb.com/ix/4282"}}, {"type": "Feature", "geometry": {"type": "Point", "coordinates": [12.935775, 55.571236]}, "properties": {"name": "SONIX Malmo", "city": "Malm\u00f6", "country": "SE", "members": 8, "url": "https://www.peeringdb.com/ix/4292"}}, {"type": "Feature", "geometry": {"type": "Point", "coordinates": [23.870251, 37.871339]}, "properties": {"name": "NetIX Greece", "city": "Thessaloniki / Athens", "country": "GR", "members": 36, "url": "https://www.peeringdb.com/ix/4310"}}, {"type": "Feature", "geometry": {"type": "Point", "coordinates": [2.137457, 41.351557]}, "properties": {"name": "Barcelona-IX", "city": "Barcelona", "country": "ES", "members": 27, "url": "https://www.peeringdb.com/ix/4322"}}, {"type": "Feature", "geometry": {"type": "Point", "coordinates": [10.79209, 52.42821]}, "properties": {"name": "SON-IX", "city": "Wolfsburg", "country": "DE", "members": 10, "url": "https://www.peeringdb.com/ix/4323"}}, {"type": "Feature", "geometry": {"type": "Point", "coordinates": [21.915186, 43.321724]}, "properties": {"name": "NaissIX IXP", "city": "Nis", "country": "RS", "members": 0, "url": "https://www.peeringdb.com/ix/4326"}}, {"type": "Feature", "geometry": {"type": "Point", "coordinates": [-9.123454, 38.787919]}, "properties": {"name": "LIS-IX", "city": "Lisbon", "country": "PT", "members": 3, "url": "https://www.peeringdb.com/ix/4353"}}, {"type": "Feature", "geometry": {"type": "Point", "coordinates": [5.765145, 53.204849]}, "properties": {"name": "Noord-IX", "city": "Leeuwarden", "country": "NL", "members": 3, "url": "https://www.peeringdb.com/ix/4360"}}, {"type": "Feature", "geometry": {"type": "Point", "coordinates": [13.369905, 52.465779]}, "properties": {"name": "FIX Berlin", "city": "Berlin", "country": "DE", "members": 6, "url": "https://www.peeringdb.com/ix/4367"}}, {"type": "Feature", "geometry": {"type": "Point", "coordinates": [57.893844, 23.664446]}, "properties": {"name": "Oman-IX", "city": "Muscat", "country": "OM", "members": 10, "url": "https://www.peeringdb.com/ix/4371"}}, {"type": "Feature", "geometry": {"type": "Point", "coordinates": [-0.010775, 51.499819]}, "properties": {"name": "Stelia IX", "city": "London", "country": "GB", "members": 0, "url": "https://www.peeringdb.com/ix/4374"}}, {"type": "Feature", "geometry": {"type": "Point", "coordinates": [12.512156, 41.898919]}, "properties": {"name": "MIX Roma", "city": "Rome", "country": "IT", "members": 18, "url": "https://www.peeringdb.com/ix/4377"}}, {"type": "Feature", "geometry": {"type": "Point", "coordinates": [17.955657, 59.362574]}, "properties": {"name": "KeFF-IX", "city": "Stockholm, Gothenburg, Malm\u00f6, Amsterdam", "country": "SE", "members": 11, "url": "https://www.peeringdb.com/ix/4381"}}, {"type": "Feature", "geometry": {"type": "Point", "coordinates": [4.950837, 52.356394]}, "properties": {"name": "Giganet IXN Amsterdam", "city": "Amsterdam", "country": "NL", "members": 43, "url": "https://www.peeringdb.com/ix/4384"}}, {"type": "Feature", "geometry": {"type": "Point", "coordinates": [8.619718, 50.102755]}, "properties": {"name": "TMW-iX", "city": "Frankfurt am Main", "country": "DE", "members": 6, "url": "https://www.peeringdb.com/ix/4401"}}, {"type": "Feature", "geometry": {"type": "Point", "coordinates": [8.735199, 50.11925]}, "properties": {"name": "Pfcloud IX", "city": "Frankfurt", "country": "DE", "members": 1, "url": "https://www.peeringdb.com/ix/4410"}}, {"type": "Feature", "geometry": {"type": "Point", "coordinates": [36.896534, -1.34014]}, "properties": {"name": "Asteroid Nairobi-IX", "city": "Nairobi", "country": "KE", "members": 0, "url": "https://www.peeringdb.com/ix/4413"}}, {"type": "Feature", "geometry": {"type": "Point", "coordinates": [10.04365, 53.54799]}, "properties": {"name": "CSNIX - Hamburg", "city": "Hamburg", "country": "DE", "members": 1, "url": "https://www.peeringdb.com/ix/4414"}}, {"type": "Feature", "geometry": {"type": "Point", "coordinates": [10.788402, 53.583837]}, "properties": {"name": "CSNIX - Kehrsen", "city": "Kehrsen", "country": "DE", "members": 2, "url": "https://www.peeringdb.com/ix/4415"}}, {"type": "Feature", "geometry": {"type": "Point", "coordinates": [10.7791, 53.559444]}, "properties": {"name": "CSNIX - Gudow", "city": "Gudow", "country": "DE", "members": 1, "url": "https://www.peeringdb.com/ix/4416"}}, {"type": "Feature", "geometry": {"type": "Point", "coordinates": [10.04365, 53.54799]}, "properties": {"name": "CSNIX - Hamburg RemotePeering", "city": "Hamburg", "country": "DE", "members": 0, "url": "https://www.peeringdb.com/ix/4417"}}, {"type": "Feature", "geometry": {"type": "Point", "coordinates": [50.550816, 26.232321]}, "properties": {"name": "Helix-IX", "city": "RIFFA", "country": "BH", "members": 0, "url": "https://www.peeringdb.com/ix/4418"}}, {"type": "Feature", "geometry": {"type": "Point", "coordinates": [6.069836, 50.895608]}, "properties": {"name": "SN-IX", "city": "Eygelshoven", "country": "NL", "members": 1, "url": "https://www.peeringdb.com/ix/4424"}}, {"type": "Feature", "geometry": {"type": "Point", "coordinates": [6.869937, 51.186111]}, "properties": {"name": "GL-IX", "city": "D\u00fcsseldorf", "country": "DE", "members": 2, "url": "https://www.peeringdb.com/ix/4457"}}, {"type": "Feature", "geometry": {"type": "Point", "coordinates": [2.208747, 48.782499]}, "properties": {"name": "Association HwHost", "city": "Paris", "country": "FR", "members": 0, "url": "https://www.peeringdb.com/ix/4461"}}, {"type": "Feature", "geometry": {"type": "Point", "coordinates": [46.64639, 24.71805]}, "properties": {"name": "center3 IX Riyadh", "city": "Riyadh", "country": "SA", "members": 10, "url": "https://www.peeringdb.com/ix/4478"}}, {"type": "Feature", "geometry": {"type": "Point", "coordinates": [21.005015, 52.227718]}, "properties": {"name": "POM-IX", "city": "Gda\u0144sk", "country": "PL", "members": 9, "url": "https://www.peeringdb.com/ix/4480"}}, {"type": "Feature", "geometry": {"type": "Point", "coordinates": [23.870251, 37.871339]}, "properties": {"name": "Free-IX Greece", "city": "Thessaloniki & Athens", "country": "GR", "members": 11, "url": "https://www.peeringdb.com/ix/4493"}}, {"type": "Feature", "geometry": {"type": "Point", "coordinates": [11.17706, 49.38991]}, "properties": {"name": "frankonIX", "city": "Nuremberg", "country": "DE", "members": 21, "url": "https://www.peeringdb.com/ix/4503"}}, {"type": "Feature", "geometry": {"type": "Point", "coordinates": [-3.660963, 40.466022]}, "properties": {"name": "AxiusIX HOR1", "city": "Hormigos", "country": "ES", "members": 1, "url": "https://www.peeringdb.com/ix/4511"}}, {"type": "Feature", "geometry": {"type": "Point", "coordinates": [4.950837, 52.356394]}, "properties": {"name": "PeersIX Amsterdam", "city": "Amsterdam", "country": "NL", "members": 18, "url": "https://www.peeringdb.com/ix/4553"}}, {"type": "Feature", "geometry": {"type": "Point", "coordinates": [14.321438, 41.0664]}, "properties": {"name": "MIX Caserta", "city": "Caserta", "country": "IT", "members": 6, "url": "https://www.peeringdb.com/ix/4577"}}, {"type": "Feature", "geometry": {"type": "Point", "coordinates": [2.137457, 41.351557]}, "properties": {"name": "ESpanix Barcelona Lower LAN", "city": "Barcelona", "country": "ES", "members": 2, "url": "https://www.peeringdb.com/ix/4583"}}, {"type": "Feature", "geometry": {"type": "Point", "coordinates": [2.137457, 41.351557]}, "properties": {"name": "ESpanix Barcelona Upper LAN", "city": "Barcelona", "country": "ES", "members": 2, "url": "https://www.peeringdb.com/ix/4584"}}, {"type": "Feature", "geometry": {"type": "Point", "coordinates": [4.950837, 52.356394]}, "properties": {"name": "NSIX Amsterdam", "city": "Amsterdam", "country": "NL", "members": 17, "url": "https://www.peeringdb.com/ix/4589"}}, {"type": "Feature", "geometry": {"type": "Point", "coordinates": [8.735199, 50.11925]}, "properties": {"name": "SmartIX", "city": "Frankfurt", "country": "DE", "members": 2, "url": "https://www.peeringdb.com/ix/4594"}}, {"type": "Feature", "geometry": {"type": "Point", "coordinates": [22.206, 60.494456]}, "properties": {"name": "TREX turku", "city": "Turku", "country": "FI", "members": 5, "url": "https://www.peeringdb.com/ix/4621"}}, {"type": "Feature", "geometry": {"type": "Point", "coordinates": [8.735199, 50.11925]}, "properties": {"name": "ERA-IX Frankfurt", "city": "Frankfurt", "country": "DE", "members": 74, "url": "https://www.peeringdb.com/ix/4630"}}, {"type": "Feature", "geometry": {"type": "Point", "coordinates": [-9.123454, 38.787919]}, "properties": {"name": "BGP.Exchange - Lisbon", "city": "Lisbon", "country": "PT", "members": 0, "url": "https://www.peeringdb.com/ix/4636"}}, {"type": "Feature", "geometry": {"type": "Point", "coordinates": [6.84964, 52.236979]}, "properties": {"name": "ENS-IX", "city": "Enschede", "country": "NL", "members": 10, "url": "https://www.peeringdb.com/ix/4644"}}, {"type": "Feature", "geometry": {"type": "Point", "coordinates": [3.887893, 43.60956]}, "properties": {"name": "MPLIX", "city": "Montpellier", "country": "FR", "members": 2, "url": "https://www.peeringdb.com/ix/4652"}}, {"type": "Feature", "geometry": {"type": "Point", "coordinates": [39.657172, -4.060807]}, "properties": {"name": "LINX Mombasa", "city": "Mombasa", "country": "KE", "members": 46, "url": "https://www.peeringdb.com/ix/4653"}}, {"type": "Feature", "geometry": {"type": "Point", "coordinates": [-0.557446, 44.889171]}, "properties": {"name": "France-IX Bordeaux", "city": "Bordeaux", "country": "FR", "members": 2, "url": "https://www.peeringdb.com/ix/4693"}}, {"type": "Feature", "geometry": {"type": "Point", "coordinates": [23.835249, 44.316567]}, "properties": {"name": "DoljNET IX", "city": "Craiova", "country": "RO", "members": 0, "url": "https://www.peeringdb.com/ix/4696"}}, {"type": "Feature", "geometry": {"type": "Point", "coordinates": [2.208747, 48.782499]}, "properties": {"name": "nine", "city": "Amsterdam, Bordeaux, Frankfurt, Lille, London, Lyon, Marseille, Milano, Montpellier, Paris, Zurich", "country": "FR", "members": 111, "url": "https://www.peeringdb.com/ix/4705"}}, {"type": "Feature", "geometry": {"type": "Point", "coordinates": [-6.41897, 53.296306]}, "properties": {"name": "MegaIX Dublin", "city": "Dublin", "country": "IE", "members": 3, "url": "https://www.peeringdb.com/ix/4710"}}, {"type": "Feature", "geometry": {"type": "Point", "coordinates": [51.437444, 25.325315]}, "properties": {"name": "Doha IX", "city": "Doha", "country": "QA", "members": 9, "url": "https://www.peeringdb.com/ix/4715"}}, {"type": "Feature", "geometry": {"type": "Point", "coordinates": [8.520255, 47.387749]}, "properties": {"name": "AKIX", "city": "Zurich", "country": "CH", "members": 12, "url": "https://www.peeringdb.com/ix/4718"}}, {"type": "Feature", "geometry": {"type": "Point", "coordinates": [36.896534, -1.34014]}, "properties": {"name": "BGP.Exchange - Nairobi", "city": "Nairobi", "country": "KE", "members": 0, "url": "https://www.peeringdb.com/ix/4724"}}, {"type": "Feature", "geometry": {"type": "Point", "coordinates": [6.869937, 51.186111]}, "properties": {"name": "LOCIX", "city": "D\u00fcsseldorf", "country": "DE", "members": 0, "url": "https://www.peeringdb.com/ix/4730"}}, {"type": "Feature", "geometry": {"type": "Point", "coordinates": [8.71898, 47.499068]}, "properties": {"name": "Exchange7", "city": "Winterthur", "country": "CH", "members": 8, "url": "https://www.peeringdb.com/ix/4744"}}, {"type": "Feature", "geometry": {"type": "Point", "coordinates": [23.745514, 37.973352]}, "properties": {"name": "NVL-IX", "city": "Athens", "country": "GR", "members": 12, "url": "https://www.peeringdb.com/ix/4775"}}, {"type": "Feature", "geometry": {"type": "Point", "coordinates": [8.735199, 50.11925]}, "properties": {"name": "TievoluIX", "city": "Frankfurt", "country": "DE", "members": 5, "url": "https://www.peeringdb.com/ix/4779"}}, {"type": "Feature", "geometry": {"type": "Point", "coordinates": [28.827068, 40.993532]}, "properties": {"name": "EURASIA-IX.NET", "city": "Istanbul", "country": "TR", "members": 6, "url": "https://www.peeringdb.com/ix/4781"}}, {"type": "Feature", "geometry": {"type": "Point", "coordinates": [34.858475, 32.084691]}, "properties": {"name": "IL-IX", "city": "Multiple", "country": "IL", "members": 16, "url": "https://www.peeringdb.com/ix/4783"}}, {"type": "Feature", "geometry": {"type": "Point", "coordinates": [4.950837, 52.356394]}, "properties": {"name": "WHY2025 IXP", "city": "Geesterambacht", "country": "NL", "members": 2, "url": "https://www.peeringdb.com/ix/4792"}}, {"type": "Feature", "geometry": {"type": "Point", "coordinates": [22.865902, 40.661276]}, "properties": {"name": "MIX Thessaloniki", "city": "Thessaloniki", "country": "GR", "members": 13, "url": "https://www.peeringdb.com/ix/4797"}}, {"type": "Feature", "geometry": {"type": "Point", "coordinates": [4.950837, 52.356394]}, "properties": {"name": "Lynqia IX", "city": "Amsterdam", "country": "NL", "members": 6, "url": "https://www.peeringdb.com/ix/4819"}}, {"type": "Feature", "geometry": {"type": "Point", "coordinates": [-0.010775, 51.499819]}, "properties": {"name": "LONIX UK", "city": "London", "country": "GB", "members": 1, "url": "https://www.peeringdb.com/ix/4836"}}, {"type": "Feature", "geometry": {"type": "Point", "coordinates": [4.950837, 52.356394]}, "properties": {"name": "FogIXP Amsterdam", "city": "Amsterdam", "country": "NL", "members": 36, "url": "https://www.peeringdb.com/ix/4837"}}, {"type": "Feature", "geometry": {"type": "Point", "coordinates": [13.369905, 52.465779]}, "properties": {"name": "BGP.Exchange - Berlin", "city": "Berlin", "country": "DE", "members": 29, "url": "https://www.peeringdb.com/ix/4842"}}, {"type": "Feature", "geometry": {"type": "Point", "coordinates": [10.810183, 59.924726]}, "properties": {"name": "Netnod Oslo BLUE -- MTU9K", "city": "Oslo", "country": "NO", "members": 4, "url": "https://www.peeringdb.com/ix/4855"}}, {"type": "Feature", "geometry": {"type": "Point", "coordinates": [10.810183, 59.924726]}, "properties": {"name": "Netnod Oslo GREEN -- MTU9K", "city": "Oslo", "country": "NO", "members": 4, "url": "https://www.peeringdb.com/ix/4856"}}, {"type": "Feature", "geometry": {"type": "Point", "coordinates": [6.869937, 51.186111]}, "properties": {"name": "Schleyer-IX", "city": "D\u00fcsseldorf", "country": "DE", "members": 2, "url": "https://www.peeringdb.com/ix/4858"}}, {"type": "Feature", "geometry": {"type": "Point", "coordinates": [8.619718, 50.102755]}, "properties": {"name": "MAINPORT Peer-Exchange", "city": "Frankfurt am Main", "country": "DE", "members": 15, "url": "https://www.peeringdb.com/ix/4879"}}, {"type": "Feature", "geometry": {"type": "Point", "coordinates": [36.896534, -1.34014]}, "properties": {"name": "PLUGINS IX", "city": "NAIROBI", "country": "KE", "members": 0, "url": "https://www.peeringdb.com/ix/4898"}}, {"type": "Feature", "geometry": {"type": "Point", "coordinates": [-2.120423, 52.637244]}, "properties": {"name": "IXMidlands", "city": "Wolverhampton", "country": "GB", "members": 4, "url": "https://www.peeringdb.com/ix/4912"}}, {"type": "Feature", "geometry": {"type": "Point", "coordinates": [21.005015, 52.227718]}, "properties": {"name": "1-PL FREE", "city": "Warsaw, Wroclaw, Katowice", "country": "PL", "members": 20, "url": "https://www.peeringdb.com/ix/4916"}}, {"type": "Feature", "geometry": {"type": "Point", "coordinates": [8.735199, 50.11925]}, "properties": {"name": "1-DE FREE", "city": "Frankfurt", "country": "DE", "members": 17, "url": "https://www.peeringdb.com/ix/4917"}}, {"type": "Feature", "geometry": {"type": "Point", "coordinates": [4.950837, 52.356394]}, "properties": {"name": "1-NL FREE", "city": "Amsterdam", "country": "NL", "members": 41, "url": "https://www.peeringdb.com/ix/4918"}}, {"type": "Feature", "geometry": {"type": "Point", "coordinates": [28.827068, 40.993532]}, "properties": {"name": "TurkIX Istanbul", "city": "Istanbul", "country": "TR", "members": 0, "url": "https://www.peeringdb.com/ix/4927"}}, {"type": "Feature", "geometry": {"type": "Point", "coordinates": [8.735199, 50.11925]}, "properties": {"name": "VexIX", "city": "Frankfurt", "country": "DE", "members": 1, "url": "https://www.peeringdb.com/ix/4946"}}, {"type": "Feature", "geometry": {"type": "Point", "coordinates": [-0.010775, 51.499819]}, "properties": {"name": "European Edge IX", "city": "London", "country": "GB", "members": 0, "url": "https://www.peeringdb.com/ix/4965"}}, {"type": "Feature", "geometry": {"type": "Point", "coordinates": [7.781145, 48.569149]}, "properties": {"name": "EuroRhine-IX", "city": "Strasbourg", "country": "FR", "members": 12, "url": "https://www.peeringdb.com/ix/4968"}}, {"type": "Feature", "geometry": {"type": "Point", "coordinates": [9.17865, 45.49538]}, "properties": {"name": "SSIX", "city": "Olbia", "country": "IT", "members": 4, "url": "https://www.peeringdb.com/ix/4970"}}, {"type": "Feature", "geometry": {"type": "Point", "coordinates": [4.950837, 52.356394]}, "properties": {"name": "LMIX EU", "city": "Amsterdam, Dusseldorf", "country": "NL", "members": 2, "url": "https://www.peeringdb.com/ix/4971"}}, {"type": "Feature", "geometry": {"type": "Point", "coordinates": [4.950837, 52.356394]}, "properties": {"name": "Kawaii IX AMS", "city": "Amsterdam", "country": "NL", "members": 23, "url": "https://www.peeringdb.com/ix/4973"}}, {"type": "Feature", "geometry": {"type": "Point", "coordinates": [2.208747, 48.782499]}, "properties": {"name": "ERA-IX Paris", "city": "Paris", "country": "FR", "members": 10, "url": "https://www.peeringdb.com/ix/4985"}}, {"type": "Feature", "geometry": {"type": "Point", "coordinates": [32.870155, 39.487559]}, "properties": {"name": "RegPEX", "city": "Ankara", "country": "TR", "members": 5, "url": "https://www.peeringdb.com/ix/4986"}}, {"type": "Feature", "geometry": {"type": "Point", "coordinates": [8.520255, 47.387749]}, "properties": {"name": "FogIXP Zurich", "city": "Zurich", "country": "CH", "members": 7, "url": "https://www.peeringdb.com/ix/4989"}}, {"type": "Feature", "geometry": {"type": "Point", "coordinates": [-3.660963, 40.466022]}, "properties": {"name": "1-ES FREE", "city": "Madrid", "country": "ES", "members": 6, "url": "https://www.peeringdb.com/ix/4993"}}, {"type": "Feature", "geometry": {"type": "Point", "coordinates": [2.208747, 48.782499]}, "properties": {"name": "1-FR FREE", "city": "Paris", "country": "FR", "members": 4, "url": "https://www.peeringdb.com/ix/4994"}}, {"type": "Feature", "geometry": {"type": "Point", "coordinates": [14.482978, 50.060164]}, "properties": {"name": "1-CZ FREE", "city": "Prague", "country": "CZ", "members": 4, "url": "https://www.peeringdb.com/ix/4995"}}, {"type": "Feature", "geometry": {"type": "Point", "coordinates": [23.32401, 42.693819]}, "properties": {"name": "1-BG FREE", "city": "Sofia", "country": "BG", "members": 6, "url": "https://www.peeringdb.com/ix/4996"}}, {"type": "Feature", "geometry": {"type": "Point", "coordinates": [17.095572, 48.118746]}, "properties": {"name": "1-SK FREE", "city": "Bratislava", "country": "SK", "members": 4, "url": "https://www.peeringdb.com/ix/4997"}}, {"type": "Feature", "geometry": {"type": "Point", "coordinates": [6.869937, 51.186111]}, "properties": {"name": "IXP inactive", "city": "D\u00fcsseldorf", "country": "DE", "members": 0, "url": "https://www.peeringdb.com/ix/4998"}}, {"type": "Feature", "geometry": {"type": "Point", "coordinates": [4.950837, 52.356394]}, "properties": {"name": "WQEQWEQWEQWEQWEE", "city": "Amsterdam", "country": "NL", "members": 0, "url": "https://www.peeringdb.com/ix/4999"}}, {"type": "Feature", "geometry": {"type": "Point", "coordinates": [6.869937, 51.186111]}, "properties": {"name": "NEXTIX", "city": "D\u00fcsseldorf", "country": "DE", "members": 9, "url": "https://www.peeringdb.com/ix/5005"}}, {"type": "Feature", "geometry": {"type": "Point", "coordinates": [9.17865, 45.49538]}, "properties": {"name": "NubiHost", "city": "Casano Madeno", "country": "IT", "members": 0, "url": "https://www.peeringdb.com/ix/5014"}}]}